Thing Type Code,Thing Serial,Thing Name,Owner Group,Alias Config,aliasMapped,deviceId,doorEvent,lastDetectTime,lastLocateTime,location,locationXYZ,logicalReader,sessionId,source,tsCoreIn,tsEdgeIn,zone,Address,AddressURL,City,DispatchStatus,DispatchedAssociate,EventArray,EventCode,EventComponent,EventDescription,EventImpact,EventPriority,EventReportURL,PostalCode,State,TVM_Props,deviceID,Dispatch,SpecialCase,Dispatch_Props
STATION,104,Westlake/MacArthur Park,>LAM,,104,,,2020-05-09T21:52:51.178-0400,2020-04-30T11:53:37.059-0400,-118.4893119785748;34.01360101061762;0.0,2218.7;3261.8;0.0,,,TVMEVENTSFTPRULE,2020-05-15T12:13:05.126-0400,2020-05-15T12:13:04.454-0400,104,660 S ALVARADO ST,"https://www.google.com/maps/place/660+S+ALVARADO+ST,+LOS+ANGELES,+CA,+90057,+USA",LOS ANGELES,UNASSIGNED,,"[""104_0:140:0""]",140,Device Level,In Service,,0,https://lametro.vizix.io/console/#/analytics/report/execution/OPENEVENTS?StationID=104&run=true,90057,CA,"{""messageId"":""104_0"",""eventCode"":""140"",""eventType"":""SET""}",,false,false,
STATION,1041,APU/Citrus College,>LAM,,1041,,,2020-05-09T21:52:52.446-0400,2020-04-30T11:53:37.059-0400,-118.48475222324949;34.01660574192403;0.0,3599.2;4359.2;0.0,,,TVMEVENTSFTPRULE,2020-05-15T12:13:05.057-0400,2020-05-15T12:13:04.287-0400,1041,905 N CITRUS,"https://www.google.com/maps/place/905+N+CITRUS,+AZUSA,+CA,+91702,+USA",AZUSA,UNASSIGNED,,"[""1041_0:140:0""]",140,Device Level,In Service,,0,https://lametro.vizix.io/console/#/analytics/report/execution/OPENEVENTS?StationID=1041&run=true,91702,CA,"{""messageId"":""1041_0"",""eventCode"":""140"",""eventType"":""SET""}",,false,false,
STATION,105,103rd St/Watts Towers,>LAM,,105,,,2020-05-09T21:52:51.449-0400,2020-04-30T11:53:36.948-0400,-118.48870043491941;34.01078182454536;0.0,2403.8;2232.2;0.0,,,TVMEVENTSFTPRULE,2020-05-15T12:13:04.937-0400,2020-05-15T12:13:04.299-0400,105,10100 GRANDEE AVE,"https://www.google.com/maps/place/10100+GRANDEE+AVE,+LOS+ANGELES,+CA,+90002,+USA",LOS ANGELES,UNASSIGNED,,"[""105_0:140:0""]",140,Device Level,In Service,,0,https://lametro.vizix.io/console/#/analytics/report/execution/OPENEVENTS?StationID=105&run=true,90002,CA,"{""messageId"":""105_0"",""eventCode"":""140"",""eventType"":""SET""}",,false,false,"{""Dispatch"":true,""DispatchStatus"":""ASSIGNED"",""DispatchedAssociate"":""John Smith""}"
STATION,107,Warner Center Transit Hub,>LAM,,107,,,2020-05-09T21:52:51.903-0400,2020-04-30T11:53:37.055-0400,-118.49519205070465;34.01559537250431;0.0,438.4;3990.2;0.0,,,TVMEVENTSFTPRULE,2020-06-08T11:51:19.559-0400,2020-06-08T11:51:19.445-0400,107,6120 OWENSMOUTH AVE,"https://www.google.com/maps/place/6120+OWENSMOUTH+AVE,+WOODLAND+HILLS,+CA,+91367,+USA",WOODLAND HILLS,ASSIGNED,John Smith,"[""107_0:140:0"",""107_10:407:1""]",407,Bill System,Billbox Removed / Inserted,OOS,1,https://lametro.vizix.io/console/#/analytics/report/execution/OPENEVENTS?StationID=107&run=true,91367,CA,"{""messageId"":""107_10"",""eventCode"":""407"",""eventType"":""SET""}",,true,false,"{""Dispatch"":true,""DispatchStatus"":""ASSIGNED"",""DispatchedAssociate"":""John Smith""}"
STATION,109,De Soto,>LAM,,109,,,2020-05-09T21:52:51.387-0400,2020-04-30T11:53:37.055-0400,-118.4946756946202;34.01589698427199;0.0,594.7;4100.3;0.0,,,TVMEVENTSFTPRULE,2020-06-08T11:52:34.130-0400,2020-06-08T11:52:34.018-0400,109,20851 VICTORY BLVD,"https://www.google.com/maps/place/20851+VICTORY+BLVD,+WOODLAND+HILLS,+CA,+91367,+USA",WOODLAND HILLS,UNASSIGNED,,"[""109_0:140:0"",""109_10:212:2""]",212,Smart Card Module,CSC Bin Full,Degraded,2,https://lametro.vizix.io/console/#/analytics/report/execution/OPENEVENTS?StationID=109&run=true,91367,CA,"{""messageId"":""109_10"",""eventCode"":""212"",""eventType"":""SET""}",,false,false,
STATION,110,Pierce College,>LAM,,110,,,2020-05-09T21:52:51.265-0400,2020-04-30T11:53:37.059-0400,-118.49433307385068;34.01589430942802;0.0,698.5;4099.4;0.0,,,TVMEVENTSFTPRULE,2020-05-15T12:13:04.508-0400,2020-05-15T12:13:04.209-0400,110,6424 WINNETKA AVE,"https://www.google.com/maps/place/6424+WINNETKA+AVE,+WOODLAND+HILLS,+CA,+91367,+USA",WOODLAND HILLS,UNASSIGNED,,"[""110_0:140:0""]",140,Device Level,In Service,,0,https://lametro.vizix.io/console/#/analytics/report/execution/OPENEVENTS?StationID=110&run=true,91367,CA,"{""messageId"":""110_0"",""eventCode"":""140"",""eventType"":""SET""}",,false,false,
STATION,111,Tampa,>LAM,,111,,,2020-05-09T21:52:51.882-0400,2020-04-30T11:53:37.055-0400,-118.49398706888775;34.01590209074579;0.0,803.2;4102.2;0.0,,,TVMEVENTSFTPRULE,2020-05-15T12:24:17.367-0400,2020-05-15T12:24:17.252-0400,111,6100 TAMPA AVE,"https://www.google.com/maps/place/6100+TAMPA+AVE,+TARZANE,+CA,+91335,+USA",TARZANE,UNASSIGNED,,"[""111_0:140:0""]",140,Device Level,In Service,,0,https://lametro.vizix.io/console/#/analytics/report/execution/OPENEVENTS?StationID=111&run=true,91335,CA,"{""messageId"":""111_0"",""eventCode"":""140"",""eventType"":""SET""}",,false,false,"{""Dispatch"":false,""DispatchStatus"":""UNASSIGNED"",""DispatchedAssociate"":""""}"
STATION,1110,Cubic Lab,>LAM,,1110,,,2020-05-09T21:52:52.849-0400,2020-04-30T11:53:37.060-0400,-118.486644923687;34.01024785863565;0.0,3026.2;2037.2;0.0,,,TVMEVENTSFTPRULE,2020-05-15T12:13:05.348-0400,2020-05-15T12:13:04.542-0400,1110,14100 SHOEMAKER ST,"https://www.google.com/maps/place/14100+SHOEMAKER+ST,+NORWALK,+CA,+90650,+USA",NORWALK,UNASSIGNED,,"[""1110_0:140:0""]",140,Device Level,In Service,,0,https://lametro.vizix.io/console/#/analytics/report/execution/OPENEVENTS?StationID=1110&run=true,90650,CA,"{""messageId"":""1110_0"",""eventCode"":""140"",""eventType"":""SET""}",,false,false,
STATION,112,Reseda,>LAM,,112,,,2020-05-09T21:52:51.703-0400,2020-04-30T11:53:37.033-0400,-118.49365179276089;34.015899867508224;0.0,904.7;4101.4;0.0,,,TVMEVENTSFTPRULE,2020-05-15T12:13:05.098-0400,2020-05-15T12:13:04.519-0400,112,6064 RESEDA BLVD,"https://www.google.com/maps/place/6064+RESEDA+BLVD,+TARZANE,+CA,+91335,+USA",TARZANE,UNASSIGNED,,"[""112_0:140:0""]",140,Device Level,In Service,,0,https://lametro.vizix.io/console/#/analytics/report/execution/OPENEVENTS?StationID=112&run=true,91335,CA,"{""messageId"":""112_0"",""eventCode"":""140"",""eventType"":""SET""}",,false,false,
STATION,113,Balboa,>LAM,,113,,,2020-05-09T21:52:51.891-0400,2020-04-30T11:53:37.055-0400,-118.49331249332052;34.01589319780769;0.0,1007.5;4099.0;0.0,,,TVMEVENTSFTPRULE,2020-05-15T12:13:04.463-0400,2020-05-15T12:13:04.126-0400,113,6338 N BALBOA BLVD,"https://www.google.com/maps/place/6338+N+BALBOA+BLVD,+ENCINO,+CA,+91316,+USA",ENCINO,UNASSIGNED,,"[""113_0:140:0""]",140,Device Level,In Service,,0,https://lametro.vizix.io/console/#/analytics/report/execution/OPENEVENTS?StationID=113&run=true,91316,CA,"{""messageId"":""113_0"",""eventCode"":""140"",""eventType"":""SET""}",,false,false,
STATION,114,Woodley,>LAM,,114,,,2020-05-09T21:52:51.583-0400,2020-04-30T11:53:37.057-0400,-118.49298124050718;34.01589875589126;0.0,1107.7;4101.0;0.0,,,TVMEVENTSFTPRULE,2020-05-15T12:13:05.291-0400,2020-05-15T12:13:04.639-0400,114,6380 N WOODLEY AVE,"https://www.google.com/maps/place/6380+N+WOODLEY+AVE,+VAN+NUYS,+CA,+91406,+USA",VAN NUYS,UNASSIGNED,,"[""114_0:140:0""]",140,Device Level,In Service,,0,https://lametro.vizix.io/console/#/analytics/report/execution/OPENEVENTS?StationID=114&run=true,91406,CA,"{""messageId"":""114_0"",""eventCode"":""140"",""eventType"":""SET""}",,false,false,
STATION,115,Sepulveda,>LAM,,115,,,2020-05-09T21:52:51.781-0400,2020-04-30T11:53:37.060-0400,-118.49264059996229;34.01589097457008;0.0,1210.9;4098.1;0.0,,,TVMEVENTSFTPRULE,2020-06-05T11:56:04.780-0400,2020-06-05T11:56:04.672-0400,115,15432 W ERWIN ST,"https://www.google.com/maps/place/15432+W+ERWIN+ST,+VAN+NUYS,+CA,+91411,+USA",VAN NUYS,UNASSIGNED,,"[""115_0:140:0"",""80001:140:0"",""60001:140:0"",""60000:140:0""]",140,Device Level,In Service,,0,https://lametro.vizix.io/console/#/analytics/report/execution/OPENEVENTS?StationID=115&run=true,91411,CA,"{""messageId"":""60000"",""eventCode"":""140"",""eventType"":""SET""}",,false,false,"{""Dispatch"":false,""DispatchStatus"":""UNASSIGNED"",""DispatchedAssociate"":""""}"
STATION,116,Van Nuys,>LAM,,116,,,2020-05-09T21:52:51.871-0400,2020-04-30T11:53:36.981-0400,-118.49229191279034;34.0158965326607;0.0,1316.5;4100.2;0.0,,,TVMEVENTSFTPRULE,2020-05-15T12:13:05.059-0400,2020-05-15T12:13:04.469-0400,116,6060 VAN NUYS BLVD,"https://www.google.com/maps/place/6060+VAN+NUYS+BLVD,+VAN+NUYS,+CA,+91411,+USA",VAN NUYS,UNASSIGNED,,"[""116_0:140:0""]",140,Device Level,In Service,,0,https://lametro.vizix.io/console/#/analytics/report/execution/OPENEVENTS?StationID=116&run=true,91411,CA,"{""messageId"":""116_0"",""eventCode"":""140"",""eventType"":""SET""}",,false,false,
STATION,117,Woodman,>LAM,,117,,,2020-05-09T21:52:51.941-0400,2020-04-30T11:53:37.059-0400,-118.491957977768;34.01589208618721;0.0,1417.6;4098.5;0.0,,,TVMEVENTSFTPRULE,2020-06-05T13:29:07.829-0400,2020-06-05T13:29:07.694-0400,117,13622 W OXNARD ST,"https://www.google.com/maps/place/13622+W+OXNARD+ST,+VAN+NUYS,+CA,+91401,+USA",VAN NUYS,UNASSIGNED,,"[""117_0:140:0"",""60000:140:0"",""60004:140:0"",""60005:140:0"",""40006:407:1""]",407,Bill System,Billbox Removed / Inserted,OOS,1,https://lametro.vizix.io/console/#/analytics/report/execution/OPENEVENTS?StationID=117&run=true,91401,CA,"{""messageId"":""40007"",""eventCode"":""212"",""eventType"":""CLEAR""}",,false,false,"{""Dispatch"":false,""DispatchStatus"":""UNASSIGNED"",""DispatchedAssociate"":""""}"
STATION,118,Valley College,>LAM,,118,,,2020-05-09T21:52:51.849-0400,2020-04-30T11:53:37.057-0400,-118.49161331390957;34.01589875589126;0.0,1521.9;4101.0;0.0,,,TVMEVENTSFTPRULE,2020-05-15T12:13:05.186-0400,2020-05-15T12:13:04.531-0400,118,13240 W BURBANK BLVD,"https://www.google.com/maps/place/13240+W+BURBANK+BLVD,+VAN+NUYS,+CA,+91401,+USA",VAN NUYS,UNASSIGNED,,"[""118_0:140:0""]",140,Device Level,In Service,,0,https://lametro.vizix.io/console/#/analytics/report/execution/OPENEVENTS?StationID=118&run=true,91401,CA,"{""messageId"":""118_0"",""eventCode"":""140"",""eventType"":""SET""}",,false,false,
STATION,119,Laurel Canyon,>LAM,,119,,,2020-05-09T21:52:51.925-0400,2020-04-30T11:53:37.056-0400,-118.4912753555737;34.01589875589126;0.0,1624.2;4101.0;0.0,,,TVMEVENTSFTPRULE,2020-05-15T12:13:04.814-0400,2020-05-15T12:13:04.348-0400,119,5370 LAUREL CANYON BLVD,"https://www.google.com/maps/place/5370+LAUREL+CANYON+BLVD,+HOLLYWOOD,+CA,+91607,+USA",HOLLYWOOD,UNASSIGNED,,"[""119_0:140:0""]",140,Device Level,In Service,,0,https://lametro.vizix.io/console/#/analytics/report/execution/OPENEVENTS?StationID=119&run=true,91607,CA,"{""messageId"":""119_0"",""eventCode"":""140"",""eventType"":""SET""}",,false,false,
STATION,120,North Hollywood (Red),>LAM,,120,,,2020-05-09T21:52:51.597-0400,2020-04-30T11:53:36.976-0400,-118.49081267451862;34.01589542102869;0.0,1764.3;4099.8;0.0,,,TVMEVENTSFTPRULE,2020-05-15T12:13:05.042-0400,2020-05-15T12:13:04.577-0400,120,5373 N LANKERSHIM BLVD,"https://www.google.com/maps/place/5373+N+LANKERSHIM+BLVD,+LOS+ANGELES,+CA,+91601,+USA",LOS ANGELES,UNASSIGNED,,"[""120_0:140:0""]",140,Device Level,In Service,,0,https://lametro.vizix.io/console/#/analytics/report/execution/OPENEVENTS?StationID=120&run=true,91601,CA,"{""messageId"":""120_0"",""eventCode"":""140"",""eventType"":""SET""}",,false,false,
STATION,121,Union Station (Red),>LAM,,121,,,2020-05-09T21:52:51.860-0400,2020-04-30T11:53:36.947-0400,-118.48779988282332;34.013682472418665;0.0,2676.5;3291.5;0.0,,,TVMEVENTSFTPRULE,2020-05-15T12:13:05.201-0400,2020-05-15T12:13:04.520-0400,121,801 VIGNES ST,"https://www.google.com/maps/place/801+VIGNES+ST,+LOS+ANGELES,+CA,+90012,+USA",LOS ANGELES,UNASSIGNED,,"[""121_0:140:0""]",140,Device Level,In Service,,0,https://lametro.vizix.io/console/#/analytics/report/execution/OPENEVENTS?StationID=121&run=true,90012,CA,"{""messageId"":""121_0"",""eventCode"":""140"",""eventType"":""SET""}",,false,false,
STATION,122,Civic Center,>LAM,,122,,,2020-05-09T21:52:51.827-0400,2020-04-30T11:53:37.054-0400,-118.48821897840124;34.013684384184;0.0,2549.6;3292.2;0.0,,,TVMEVENTSFTPRULE,2020-05-15T12:13:04.873-0400,2020-05-15T12:13:04.335-0400,122,101 S HILL ST,"https://www.google.com/maps/place/101+S+HILL+ST,+LOS+ANGELES,+CA,+90013,+USA",LOS ANGELES,UNASSIGNED,,"[""122_0:140:0""]",140,Device Level,In Service,,0,https://lametro.vizix.io/console/#/analytics/report/execution/OPENEVENTS?StationID=122&run=true,90013,CA,"{""messageId"":""122_0"",""eventCode"":""140"",""eventType"":""SET""}",,false,false,
STATION,123,Pershing Square,>LAM,,123,,,2020-05-09T21:52:51.632-0400,2020-04-30T11:53:37.055-0400,-118.48874200915914;34.013366452567666;0.0,2391.2;3176.1;0.0,,,TVMEVENTSFTPRULE,2020-05-15T12:13:05.257-0400,2020-05-15T12:13:04.657-0400,123,500 S HILL ST,"https://www.google.com/maps/place/500+S+HILL+ST,+LOS+ANGELES,+CA,+90013,+USA",LOS ANGELES,UNASSIGNED,,"[""123_0:140:0""]",140,Device Level,In Service,,0,https://lametro.vizix.io/console/#/analytics/report/execution/OPENEVENTS?StationID=123&run=true,90013,CA,"{""messageId"":""123_0"",""eventCode"":""140"",""eventType"":""SET""}",,false,false,
STATION,124,7th St/Metro Center (Red),>LAM,,124,,,2020-05-09T21:52:51.913-0400,2020-04-30T11:53:36.981-0400,-118.48913227057079;34.01346427781823;0.0,2273.1;3211.9;0.0,,,TVMEVENTSFTPRULE,2020-05-15T12:13:04.387-0400,2020-05-15T12:13:04.190-0400,124,660 S FIGUEROA ST,"https://www.google.com/maps/place/660+S+FIGUEROA+ST,+LOS+ANGELES,+CA,+,+USA",LOS ANGELES,UNASSIGNED,,"[""124_0:140:0""]",140,Device Level,In Service,,0,https://lametro.vizix.io/console/#/analytics/report/execution/OPENEVENTS?StationID=124&run=true,,CA,"{""messageId"":""124_0"",""eventCode"":""140"",""eventType"":""SET""}",,false,false,
STATION,125,Wilshire/Vermont,>LAM,,125,,,2020-05-09T21:52:51.264-0400,2020-04-30T11:53:36.980-0400,-118.48953326081852;34.013774427508636;0.0,2151.7;3325.1;0.0,,,TVMEVENTSFTPRULE,2020-05-27T17:50:57.155-0400,2020-05-27T17:50:57.049-0400,125,3191 WILSHIRE BLVD,"https://www.google.com/maps/place/3191+WILSHIRE+BLVD,+LOS+ANGELES,+CA,+90005,+USA",LOS ANGELES,UNASSIGNED,,"[""555_3:140:0"",""125_0:140:0""]",140,Device Level,In Service,,0,https://lametro.vizix.io/console/#/analytics/report/execution/OPENEVENTS?StationID=125&run=true,90005,CA,"{""messageId"":""777_2"",""eventCode"":""212"",""eventType"":""CLEAR""}",,false,false,"{""Dispatch"":false,""DispatchStatus"":""UNASSIGNED"",""DispatchedAssociate"":""""}"
STATION,126,Wilshire/Normandie,>LAM,,126,,,2020-05-09T21:52:51.814-0400,2020-04-30T11:53:36.981-0400,-118.49026282167057;34.013844461181506;0.0,1930.8;3350.7;0.0,,,TVMEVENTSFTPRULE,2020-05-15T12:13:04.991-0400,2020-05-15T12:13:04.517-0400,126,3510 WILSHIRE BLVD,"https://www.google.com/maps/place/3510+WILSHIRE+BLVD,+LOS+ANGELES,+CA,+90005,+USA",LOS ANGELES,UNASSIGNED,,"[""126_0:140:0""]",140,Device Level,In Service,,0,https://lametro.vizix.io/console/#/analytics/report/execution/OPENEVENTS?StationID=126&run=true,90005,CA,"{""messageId"":""126_0"",""eventCode"":""140"",""eventType"":""SET""}",,false,false,
STATION,1264,Atlantic,>LAM,,1264,,,2020-05-09T21:52:52.862-0400,2020-04-30T11:53:37.060-0400,-118.48529268836599;34.01333754964092;0.0,3435.6;3165.6;0.0,,,TVMEVENTSFTPRULE,2020-05-15T12:13:05.320-0400,2020-05-15T12:13:04.719-0400,1264,5150 E POMONA BLVD,"https://www.google.com/maps/place/5150+E+POMONA+BLVD,+LOS+ANGELES,+CA,+90022,+USA",LOS ANGELES,UNASSIGNED,,"[""1264_0:140:0""]",140,Device Level,In Service,,0,https://lametro.vizix.io/console/#/analytics/report/execution/OPENEVENTS?StationID=1264&run=true,90022,CA,"{""messageId"":""1264_0"",""eventCode"":""140"",""eventType"":""SET""}",,false,false,
STATION,1265,E LA Civic Center,>LAM,,1265,,,2020-05-09T21:52:52.837-0400,2020-04-30T11:53:36.945-0400,-118.4856386933289;34.013341996252905;0.0,3330.8;3167.2;0.0,,,TVMEVENTSFTPRULE,2020-05-15T12:13:04.748-0400,2020-05-15T12:13:04.255-0400,1265,4780 E 3RD ST,"https://www.google.com/maps/place/4780+E+3RD+ST,+LOS+ANGELES,+CA,+90022,+USA",LOS ANGELES,UNASSIGNED,,"[""1265_0:140:0""]",140,Device Level,In Service,,0,https://lametro.vizix.io/console/#/analytics/report/execution/OPENEVENTS?StationID=1265&run=true,90022,CA,"{""messageId"":""1265_0"",""eventCode"":""140"",""eventType"":""SET""}",,false,false,"{""Dispatch"":false,""DispatchStatus"":""UNASSIGNED"",""DispatchedAssociate"":""""}"
STATION,1266,Maravilla,>LAM,,1266,,,2020-05-09T21:52:52.825-0400,2020-04-30T11:53:37.059-0400,-118.4859592173062;34.01333532633802;0.0,3233.8;3164.8;0.0,,,TVMEVENTSFTPRULE,2020-05-15T12:13:04.737-0400,2020-05-15T12:13:04.280-0400,1266,4520 E 3RD ST,"https://www.google.com/maps/place/4520+E+3RD+ST,+LOS+ANGELES,+CA,+90022,+USA",LOS ANGELES,UNASSIGNED,,"[""1266_0:140:0""]",140,Device Level,In Service,,0,https://lametro.vizix.io/console/#/analytics/report/execution/OPENEVENTS?StationID=1266&run=true,90022,CA,"{""messageId"":""1266_0"",""eventCode"":""140"",""eventType"":""SET""}",,false,false,
STATION,1267,Indiana,>LAM,,1267,,,2020-05-09T21:52:52.812-0400,2020-04-30T11:53:37.060-0400,-118.48630254006008;34.013345331199666;0.0,3129.8;3168.4;0.0,,,TVMEVENTSFTPRULE,2020-05-15T12:13:05.141-0400,2020-05-15T12:13:04.762-0400,1267,210 S INDIANA ST,"https://www.google.com/maps/place/210+S+INDIANA+ST,+LOS+ANGELES,+CA,+90033,+USA",LOS ANGELES,UNASSIGNED,,"[""1267_0:140:0""]",140,Device Level,In Service,,0,https://lametro.vizix.io/console/#/analytics/report/execution/OPENEVENTS?StationID=1267&run=true,90033,CA,"{""messageId"":""1267_0"",""eventCode"":""140"",""eventType"":""SET""}",,false,false,
STATION,1268,Soto,>LAM,,1268,,,2020-05-09T21:52:52.721-0400,2020-04-30T11:53:37.064-0400,-118.48663379287345;34.01333421468741;0.0,3029.5;3164.4;0.0,,,TVMEVENTSFTPRULE,2020-05-15T12:13:05.096-0400,2020-05-15T12:13:04.643-0400,1268,2330 E 1ST ST,"https://www.google.com/maps/place/2330+E+1ST+ST,+LOS+ANGELES,+CA,+90033,+USA",LOS ANGELES,UNASSIGNED,,"[""1268_0:140:0""]",140,Device Level,In Service,,0,https://lametro.vizix.io/console/#/analytics/report/execution/OPENEVENTS?StationID=1268&run=true,90033,CA,"{""messageId"":""1268_0"",""eventCode"":""140"",""eventType"":""SET""}",,false,false,
STATION,1269,Mariachi,>LAM,,1269,,,2020-05-09T21:52:52.710-0400,2020-04-30T11:53:37.054-0400,-118.48696370458225;34.01333532633802;0.0,2929.6;3164.8;0.0,,,TVMEVENTSFTPRULE,2020-05-15T12:13:05.392-0400,2020-05-15T12:13:04.789-0400,1269,1831 E 1ST ST,"https://www.google.com/maps/place/1831+E+1ST+ST,+LOS+ANGELES,+CA,+90012,+USA",LOS ANGELES,UNASSIGNED,,"[""1269_0:140:0""]",140,Device Level,In Service,,0,https://lametro.vizix.io/console/#/analytics/report/execution/OPENEVENTS?StationID=1269&run=true,90012,CA,"{""messageId"":""1269_0"",""eventCode"":""140"",""eventType"":""SET""}",,false,false,
STATION,127,Wilshire/Western,>LAM,,127,,,2020-05-09T21:52:51.480-0400,2020-04-30T11:53:36.980-0400,-118.49075500702482;34.01384334954055;0.0,1781.8;3350.3;0.0,,,TVMEVENTSFTPRULE,2020-05-15T12:13:04.974-0400,2020-05-15T12:13:04.409-0400,127,3775 WILSHIRE BLVD,"https://www.google.com/maps/place/3775+WILSHIRE+BLVD,+LOS+ANGELES,+CA,+90005,+USA",LOS ANGELES,UNASSIGNED,,"[""127_0:140:0""]",140,Device Level,In Service,,0,https://lametro.vizix.io/console/#/analytics/report/execution/OPENEVENTS?StationID=127&run=true,90005,CA,"{""messageId"":""127_0"",""eventCode"":""140"",""eventType"":""SET""}",,false,false,
STATION,1270,Pico/Aliso,>LAM,,1270,,,2020-05-09T21:52:52.700-0400,2020-04-30T11:53:37.056-0400,-118.48730702733617;34.0133342146857;0.0,2825.7;3164.4;0.0,,,TVMEVENTSFTPRULE,2020-05-15T12:13:05.170-0400,2020-05-15T12:13:04.578-0400,1270,1311 E 1ST ST,"https://www.google.com/maps/place/1311+E+1ST+ST,+LOS+ANGELES,+CA,+90012,+USA",LOS ANGELES,UNASSIGNED,,"[""14001:140:0"",""1270_0:140:0""]",140,Device Level,In Service,,0,https://lametro.vizix.io/console/#/analytics/report/execution/OPENEVENTS?StationID=1270&run=true,90012,CA,"{""messageId"":""1270_0"",""eventCode"":""140"",""eventType"":""SET""}",,false,false,"{""Dispatch"":false,""DispatchStatus"":""UNASSIGNED"",""DispatchedAssociate"":""""}"
STATION,1271,Little Tokyo,>LAM,,1271,,,2020-05-09T21:52:52.686-0400,2020-04-30T11:53:37.060-0400,-118.48766376113517;34.01346094286045;0.0,2717.7;3210.6;0.0,,,TVMEVENTSFTPRULE,2020-05-15T12:13:05.267-0400,2020-05-15T12:13:04.805-0400,1271,200 M ALAMEDA ST,"https://www.google.com/maps/place/200+M+ALAMEDA+ST,+LOS+ANGELES,+CA,+90012,+USA",LOS ANGELES,UNASSIGNED,,"[""1271_0:140:0""]",140,Device Level,In Service,,0,https://lametro.vizix.io/console/#/analytics/report/execution/OPENEVENTS?StationID=1271&run=true,90012,CA,"{""messageId"":""1271_0"",""eventCode"":""140"",""eventType"":""SET""}",,false,false,
STATION,128,Vermont/Beverly,>LAM,,128,,,2020-05-09T21:52:51.462-0400,2020-04-30T11:53:36.949-0400,-118.48961238598447;34.01404789193809;0.0,2127.7;3425.0;0.0,,,TVMEVENTSFTPRULE,2020-05-15T12:13:04.803-0400,2020-05-15T12:13:04.370-0400,128,301 N VERMONT AVE,"https://www.google.com/maps/place/301+N+VERMONT+AVE,+LOS+ANGELES,+CA,+90004,+USA",LOS ANGELES,UNASSIGNED,,"[""128_0:140:0""]",140,Device Level,In Service,,0,https://lametro.vizix.io/console/#/analytics/report/execution/OPENEVENTS?StationID=128&run=true,90004,CA,"{""messageId"":""128_0"",""eventCode"":""140"",""eventType"":""SET""}",,false,false,
STATION,129,Vermont/Santa Monica,>LAM,,129,,,2020-05-09T21:52:51.643-0400,2020-04-30T11:53:37.026-0400,-118.48962579702956;34.01438027227924;0.0,2123.7;3546.4;0.0,,,TVMEVENTSFTPRULE,2020-05-15T12:13:04.996-0400,2020-05-15T12:13:04.363-0400,129,1015 N VERMONT AVE,"https://www.google.com/maps/place/1015+N+VERMONT+AVE,+LOS+ANGELES,+CA,+90029,+USA",LOS ANGELES,UNASSIGNED,,"[""129_0:140:0""]",140,Device Level,In Service,,0,https://lametro.vizix.io/console/#/analytics/report/execution/OPENEVENTS?StationID=129&run=true,90029,CA,"{""messageId"":""129_0"",""eventCode"":""140"",""eventType"":""SET""}",,false,false,
STATION,130,Vermont/Sunset,>LAM,,130,,,2020-05-09T21:52:51.716-0400,2020-04-30T11:53:37.057-0400,-118.48962177371602;34.014692641914834;0.0,2124.9;3660.5;0.0,,,TVMEVENTSFTPRULE,2020-05-15T12:13:04.788-0400,2020-05-15T12:13:04.360-0400,130,1500 N VERMONT AVE,"https://www.google.com/maps/place/1500+N+VERMONT+AVE,+LOS+ANGELES,+CA,+90027,+USA",LOS ANGELES,UNASSIGNED,,"[""130_0:140:0""]",140,Device Level,In Service,,0,https://lametro.vizix.io/console/#/analytics/report/execution/OPENEVENTS?StationID=130&run=true,90027,CA,"{""messageId"":""130_0"",""eventCode"":""140"",""eventType"":""SET""}",,false,false,
STATION,131,Hollywood/Western,>LAM,,131,,,2020-05-09T21:52:51.656-0400,2020-04-30T11:53:37.051-0400,-118.4897625896893;34.014970549873425;0.0,2082.2;3762.0;0.0,,,TVMEVENTSFTPRULE,2020-05-15T12:13:04.898-0400,2020-05-15T12:13:04.381-0400,131,5450 HOLLYWOOD BLVD,"https://www.google.com/maps/place/5450+HOLLYWOOD+BLVD,+LOS+ANGELES,+CA,+90027,+USA",LOS ANGELES,UNASSIGNED,,"[""131_0:140:0""]",140,Device Level,In Service,,0,https://lametro.vizix.io/console/#/analytics/report/execution/OPENEVENTS?StationID=131&run=true,90027,CA,"{""messageId"":""131_0"",""eventCode"":""140"",""eventType"":""SET""}",,false,false,
STATION,132,Hollywood/Vine,>LAM,,132,,,2020-05-09T21:52:51.794-0400,2020-04-30T11:53:37.055-0400,-118.49004824494938;34.015203991871026;0.0,1995.8;3847.2;0.0,,,TVMEVENTSFTPRULE,2020-05-15T12:13:05.241-0400,2020-05-15T12:13:04.576-0400,132,6250 HOLLYWOOD BLVD,"https://www.google.com/maps/place/6250+HOLLYWOOD+BLVD,+LOS+ANGELES,+CA,+90028,+USA",LOS ANGELES,UNASSIGNED,,"[""132_0:140:0""]",140,Device Level,In Service,,0,https://lametro.vizix.io/console/#/analytics/report/execution/OPENEVENTS?StationID=132&run=true,90028,CA,"{""messageId"":""132_0"",""eventCode"":""140"",""eventType"":""SET""}",,false,false,
STATION,133,Hollywood/Highland,>LAM,,133,,,2020-05-09T21:52:51.678-0400,2020-04-30T11:53:37.057-0400,-118.49032048916442;34.01543854483891;0.0,1913.3;3932.9;0.0,,,TVMEVENTSFTPRULE,2020-05-15T12:13:04.877-0400,2020-05-15T12:13:04.372-0400,133,9815 HOLLYWOOD BLVD,"https://www.google.com/maps/place/9815+HOLLYWOOD+BLVD,+HOLLYWOOD,+CA,+90028,+USA",HOLLYWOOD,UNASSIGNED,,"[""133_0:140:0""]",140,Device Level,In Service,,0,https://lametro.vizix.io/console/#/analytics/report/execution/OPENEVENTS?StationID=133&run=true,90028,CA,"{""messageId"":""133_0"",""eventCode"":""140"",""eventType"":""SET""}",,false,false,
STATION,134,Universal City,>LAM,,134,,,2020-05-09T21:52:51.690-0400,2020-04-30T11:53:37.026-0400,-118.49059809779745;34.01567309715671;0.0,1829.3;4018.6;0.0,,,TVMEVENTSFTPRULE,2020-05-15T12:13:04.855-0400,2020-05-15T12:13:04.238-0400,134,3901 LANKERSHIM BLVD,"https://www.google.com/maps/place/3901+LANKERSHIM+BLVD,+STUDIO+CITY,+CA,+91604,+USA",STUDIO CITY,UNASSIGNED,,"[""134_0:140:0""]",140,Device Level,In Service,,0,https://lametro.vizix.io/console/#/analytics/report/execution/OPENEVENTS?StationID=134&run=true,91604,CA,"{""messageId"":""134_0"",""eventCode"":""140"",""eventType"":""SET""}",,false,false,
STATION,135,N Hollywood (Orange),>LAM,,135,,,2020-05-09T21:52:51.837-0400,2020-04-30T11:53:37.055-0400,-118.49101652240377;34.015905425590546;0.0,1702.6;4103.4;0.0,,,TVMEVENTSFTPRULE,2020-05-15T12:13:04.657-0400,2020-05-15T12:13:04.250-0400,135,5350 LANKERSHIM BLVD,"https://www.google.com/maps/place/5350+LANKERSHIM+BLVD,+NORTH+HOLLYWOOD,+CA,+91601,+USA",NORTH HOLLYWOOD,UNASSIGNED,,"[""135_0:140:0""]",140,Device Level,In Service,,0,https://lametro.vizix.io/console/#/analytics/report/execution/OPENEVENTS?StationID=135&run=true,91601,CA,"{""messageId"":""135_0"",""eventCode"":""140"",""eventType"":""SET""}",,false,false,
STATION,136,7th St/Metro Center (Blue),>LAM,,136,,,2020-05-09T21:52:51.728-0400,2020-04-30T11:53:37.026-0400,-118.48913945706155;34.01333021857479;0.0,2270.9;3162.9;0.0,,,TVMEVENTSFTPRULE,2020-05-15T12:13:05.155-0400,2020-05-15T12:13:04.564-0400,136,660 S FIGUEROA ST,"https://www.google.com/maps/place/660+S+FIGUEROA+ST,+LOS+ANGELES,+CA,+90017,+USA",LOS ANGELES,UNASSIGNED,,"[""136_0:140:0""]",140,Device Level,In Service,,0,https://lametro.vizix.io/console/#/analytics/report/execution/OPENEVENTS?StationID=136&run=true,90017,CA,"{""messageId"":""136_0"",""eventCode"":""140"",""eventType"":""SET""}",,false,false,
STATION,137,Pico,>LAM,,137,,,2020-05-09T21:52:51.423-0400,2020-04-30T11:53:37.026-0400,-118.48934818839649;34.013167466793945;0.0,2207.7;3103.5;0.0,,,TVMEVENTSFTPRULE,2020-05-15T12:13:04.823-0400,2020-05-15T12:13:04.381-0400,137,1236 S FLOWER ST,"https://www.google.com/maps/place/1236+S+FLOWER+ST,+LOS+ANGELES,+CA,+90015,+USA",LOS ANGELES,UNASSIGNED,,"[""137_0:140:0""]",140,Device Level,In Service,,0,https://lametro.vizix.io/console/#/analytics/report/execution/OPENEVENTS?StationID=137&run=true,90015,CA,"{""messageId"":""137_0"",""eventCode"":""140"",""eventType"":""SET""}",,false,false,
STATION,138,Grand,>LAM,,138,,,2020-05-09T21:52:51.438-0400,2020-04-30T11:53:36.947-0400,-118.48925699328998;34.01272058086153;0.0,2235.3;2940.2;0.0,,,TVMEVENTSFTPRULE,2020-05-15T12:13:04.902-0400,2020-05-15T12:13:04.187-0400,138,331 1/2 W WASHINGTON BLV,"https://www.google.com/maps/place/331+1/2+W+WASHINGTON+BLV,+LOS+ANGELES,+CA,+90015,+USA",LOS ANGELES,UNASSIGNED,,"[""138_0:140:0""]",140,Device Level,In Service,,0,https://lametro.vizix.io/console/#/analytics/report/execution/OPENEVENTS?StationID=138&run=true,90015,CA,"{""messageId"":""138_0"",""eventCode"":""140"",""eventType"":""SET""}",,false,false,
STATION,139,San Pedro St,>LAM,,139,,,2020-05-09T21:52:51.407-0400,2020-04-30T11:53:36.946-0400,-118.48892171716315;34.012442665527225;0.0,2336.8;2838.7;0.0,,,TVMEVENTSFTPRULE,2020-05-15T12:13:05.111-0400,2020-05-15T12:13:04.393-0400,139,767 E WASHINGTON BLVD,"https://www.google.com/maps/place/767+E+WASHINGTON+BLVD,+LOS+ANGELES,+CA,+90021,+USA",LOS ANGELES,UNASSIGNED,,"[""139_0:140:0""]",140,Device Level,In Service,,0,https://lametro.vizix.io/console/#/analytics/report/execution/OPENEVENTS?StationID=139&run=true,90021,CA,"{""messageId"":""139_0"",""eventCode"":""140"",""eventType"":""SET""}",,false,false,
STATION,140,Washington,>LAM,,140,,,2020-05-09T21:52:52.624-0400,2020-04-30T11:53:36.981-0400,-118.48869641160587;34.012154744287315;0.0,2405.0;2733.6;0.0,,,TVMEVENTSFTPRULE,2020-05-15T12:13:04.959-0400,2020-05-15T12:13:04.413-0400,140,1945 LONG BEACH AVE,"https://www.google.com/maps/place/1945+LONG+BEACH+AVE,+LOS+ANGELES,+CA,+90021,+USA",LOS ANGELES,UNASSIGNED,,"[""140_0:140:0""]",140,Device Level,In Service,,0,https://lametro.vizix.io/console/#/analytics/report/execution/OPENEVENTS?StationID=140&run=true,90021,CA,"{""messageId"":""140_0"",""eventCode"":""140"",""eventType"":""SET""}",,false,false,
STATION,141,Vernon,>LAM,,141,,,2020-05-09T21:52:52.613-0400,2020-04-30T11:53:36.982-0400,-118.48869507050138;34.0118868321393;0.0,2405.5;2635.7;0.0,,,TVMEVENTSFTPRULE,2020-05-15T12:13:04.845-0400,2020-05-15T12:13:04.350-0400,141,4421 LONG BEACH AVE,"https://www.google.com/maps/place/4421+LONG+BEACH+AVE,+LOS+ANGELES,+CA,+90021,+USA",LOS ANGELES,UNASSIGNED,,"[""141_0:140:0""]",140,Device Level,In Service,,0,https://lametro.vizix.io/console/#/analytics/report/execution/OPENEVENTS?StationID=141&run=true,90021,CA,"{""messageId"":""141_0"",""eventCode"":""140"",""eventType"":""SET""}",,false,false,
STATION,142,Slauson,>LAM,,142,,,2020-05-09T21:52:52.600-0400,2020-04-30T11:53:36.955-0400,-118.4886977527104;34.011611137425675;0.0,2404.6;2535.1;0.0,,,TVMEVENTSFTPRULE,2020-05-15T12:13:04.881-0400,2020-05-15T12:13:04.505-0400,142,100 5855 RANDOLPH ST,"https://www.google.com/maps/place/100+5855+RANDOLPH+ST,+LOS+ANGELES,+CA,+90032,+USA",LOS ANGELES,UNASSIGNED,,"[""142_0:140:0""]",140,Device Level,In Service,,0,https://lametro.vizix.io/console/#/analytics/report/execution/OPENEVENTS?StationID=142&run=true,90032,CA,"{""messageId"":""142_0"",""eventCode"":""140"",""eventType"":""SET""}",,false,false,
STATION,143,Florence,>LAM,,143,,,2020-05-09T21:52:52.590-0400,2020-04-30T11:53:37.060-0400,-118.48869372939686;34.01132432504737;0.0,2405.9;2430.3;0.0,,,TVMEVENTSFTPRULE,2020-05-15T12:13:04.888-0400,2020-05-15T12:13:04.228-0400,143,7225 GRAHAM AVE,"https://www.google.com/maps/place/7225+GRAHAM+AVE,+LOS+ANGELES,+CA,+90002,+USA",LOS ANGELES,UNASSIGNED,,"[""143_0:140:0""]",140,Device Level,In Service,,0,https://lametro.vizix.io/console/#/analytics/report/execution/OPENEVENTS?StationID=143&run=true,90002,CA,"{""messageId"":""143_0"",""eventCode"":""140"",""eventType"":""SET""}",,false,false,
STATION,144,Firestone,>LAM,,144,,,2020-05-09T21:52:52.579-0400,2020-04-30T11:53:36.977-0400,-118.48870579933745;34.01105307522829;0.0,2402.2;2331.2;0.0,,,TVMEVENTSFTPRULE,2020-05-15T12:13:04.730-0400,2020-05-15T12:13:04.306-0400,144,8615 GRAHAM AVE,"https://www.google.com/maps/place/8615+GRAHAM+AVE,+LOS+ANGELES,+CA,+90002,+USA",LOS ANGELES,UNASSIGNED,,"[""144_0:140:0""]",140,Device Level,In Service,,0,https://lametro.vizix.io/console/#/analytics/report/execution/OPENEVENTS?StationID=144&run=true,90002,CA,"{""messageId"":""144_0"",""eventCode"":""140"",""eventType"":""SET""}",,false,false,
STATION,145,Willowbrook (Blue),>LAM,,145,,,2020-05-09T21:52:52.568-0400,2020-04-30T11:53:37.052-0400,-118.48858284457698;34.01038416640749;0.0,2439.4;2086.9;0.0,,,TVMEVENTSFTPRULE,2020-05-15T12:13:05.058-0400,2020-05-15T12:13:04.719-0400,145,11611 WILLOWBROOK AVE,"https://www.google.com/maps/place/11611+WILLOWBROOK+AVE,+LOS+ANGELES,+CA,+90059,+USA",LOS ANGELES,UNASSIGNED,,"[""145_0:140:0""]",140,Device Level,In Service,,0,https://lametro.vizix.io/console/#/analytics/report/execution/OPENEVENTS?StationID=145&run=true,90059,CA,"{""messageId"":""145_0"",""eventCode"":""140"",""eventType"":""SET""}",,false,false,
STATION,1453,TAP LAB,>LAM,,1453,,,2020-05-09T21:52:53.140-0400,2020-05-09T21:52:53.140-0400,-118.48753541707994;34.01387412009659;0.0,2756.6;3361.5;0.0,,,TVMEVENTSFTPRULE,2020-05-15T12:13:04.436-0400,2020-05-15T12:13:04.132-0400,1453,1 GATEWAY PLZ,"https://www.google.com/maps/place/1+GATEWAY+PLZ,+LOS+ANGELES,+CA,+90011,+USA",LOS ANGELES,UNASSIGNED,,"[""1453_0:140:0""]",140,Device Level,In Service,,0,https://lametro.vizix.io/console/#/analytics/report/execution/OPENEVENTS?StationID=1453&run=true,90012,CA,"{""messageId"":""1453_0"",""eventCode"":""140"",""eventType"":""SET""}",,false,false,
STATION,146,Compton,>LAM,,146,,,2020-05-09T21:52:52.556-0400,2020-04-30T11:53:37.034-0400,-118.48869641160587;34.010043662574134;0.0,2405.0;1962.6;0.0,,,TVMEVENTSFTPRULE,2020-05-15T12:13:05.098-0400,2020-05-15T12:13:04.580-0400,146,275 WILLOWBROOK AVE,"https://www.google.com/maps/place/275+WILLOWBROOK+AVE,+COMPTON,+CA,+90220,+USA",COMPTON,UNASSIGNED,,"[""146_0:140:0""]",140,Device Level,In Service,,0,https://lametro.vizix.io/console/#/analytics/report/execution/OPENEVENTS?StationID=146&run=true,90220,CA,"{""messageId"":""146_0"",""eventCode"":""140"",""eventType"":""SET""}",,false,false,
STATION,147,Artesia,>LAM,,147,,,2020-05-09T21:52:52.544-0400,2020-04-30T11:53:36.981-0400,-118.48870311712841;34.00976351508928;0.0,2403.0;1860.3;0.0,,,TVMEVENTSFTPRULE,2020-05-15T12:13:04.950-0400,2020-05-15T12:13:04.348-0400,147,1920 HALF S ACACIA AVE,"https://www.google.com/maps/place/1920+HALF+S+ACACIA+AVE,+COMPTON,+CA,+90220,+USA",COMPTON,UNASSIGNED,,"[""147_0:140:0""]",140,Device Level,In Service,,0,https://lametro.vizix.io/console/#/analytics/report/execution/OPENEVENTS?StationID=147&run=true,90220,CA,"{""messageId"":""147_0"",""eventCode"":""140"",""eventType"":""SET""}",,false,false,
STATION,148,Del Amo,>LAM,,148,,,2020-05-09T21:52:52.530-0400,2020-04-30T11:53:37.054-0400,-118.48870445823292;34.0094933719848;0.0,2402.6;1761.6;0.0,,,TVMEVENTSFTPRULE,2020-05-15T12:13:04.851-0400,2020-05-15T12:13:04.410-0400,148,20220 SANTA FE AVE,"https://www.google.com/maps/place/20220+SANTA+FE+AVE,+RANCHO+DOMINGUEZ,+CA,+90220,+USA",RANCHO DOMINGUEZ,UNASSIGNED,,"[""148_0:140:0""]",140,Device Level,In Service,,0,https://lametro.vizix.io/console/#/analytics/report/execution/OPENEVENTS?StationID=148&run=true,90220,CA,"{""messageId"":""148_0"",""eventCode"":""140"",""eventType"":""SET""}",,false,false,
STATION,149,Wardlow,>LAM,,149,,,2020-05-09T21:52:52.483-0400,2020-04-30T11:53:36.982-0400,-118.48869507050138;34.0092065524534;0.0,2405.5;1656.8;0.0,,,TVMEVENTSFTPRULE,2020-05-15T12:13:05.275-0400,2020-05-15T12:13:04.453-0400,149,3420 N PACIFIC AVE,"https://www.google.com/maps/place/3420+N+PACIFIC+AVE,+LONG+BEACH,+CA,+90802,+USA",LONG BEACH,UNASSIGNED,,"[""149_0:140:0""]",140,Device Level,In Service,,0,https://lametro.vizix.io/console/#/analytics/report/execution/OPENEVENTS?StationID=149&run=true,90802,CA,"{""messageId"":""149_0"",""eventCode"":""140"",""eventType"":""SET""}",,false,false,
STATION,150,Willow St,>LAM,,150,,,2020-05-09T21:52:52.470-0400,2020-04-30T11:53:37.051-0400,-118.4886990938149;34.00893529587202;0.0,2404.2;1557.8;0.0,,,TVMEVENTSFTPRULE,2020-05-15T12:13:04.760-0400,2020-05-15T12:13:04.374-0400,150,2750 AMERICAN AVE,"https://www.google.com/maps/place/2750+AMERICAN+AVE,+LONG+BEACH,+CA,+90806,+USA",LONG BEACH,UNASSIGNED,,"[""150_0:140:0""]",140,Device Level,In Service,,0,https://lametro.vizix.io/console/#/analytics/report/execution/OPENEVENTS?StationID=150&run=true,90806,CA,"{""messageId"":""150_0"",""eventCode"":""140"",""eventType"":""SET""}",,false,false,"{""Dispatch"":false,""DispatchStatus"":""UNASSIGNED"",""DispatchedAssociate"":""""}"
STATION,151,Pacific Coast Highway,>LAM,,151,,,2020-05-09T21:52:52.458-0400,2020-04-30T11:53:36.982-0400,-118.48869641160589;34.00865069787315;0.0,2405.0;1453.8;0.0,,,TVMEVENTSFTPRULE,2020-05-15T12:13:04.714-0400,2020-05-15T12:13:04.335-0400,151,1798 N LONG BEACH BLVD,"https://www.google.com/maps/place/1798+N+LONG+BEACH+BLVD,+LONG+BEACH,+CA,+90813,+USA",LONG BEACH,UNASSIGNED,,"[""151_0:140:0""]",140,Device Level,In Service,,0,https://lametro.vizix.io/console/#/analytics/report/execution/OPENEVENTS?StationID=151&run=true,90813,CA,"{""messageId"":""151_0"",""eventCode"":""140"",""eventType"":""SET""}",,false,false,
STATION,152,Anaheim St,>LAM,,152,,,2020-05-09T21:52:52.447-0400,2020-04-30T11:53:37.033-0400,-118.48869507050138;34.0083616520661;0.0,2405.5;1348.3;0.0,,,TVMEVENTSFTPRULE,2020-05-15T12:13:05.140-0400,2020-05-15T12:13:04.505-0400,152,1290 N LONG BEACH BLVD,"https://www.google.com/maps/place/1290+N+LONG+BEACH+BLVD,+LONG+BEACH,+CA,+90813,+USA",LONG BEACH,UNASSIGNED,,"[""152_0:140:0""]",140,Device Level,In Service,,0,https://lametro.vizix.io/console/#/analytics/report/execution/OPENEVENTS?StationID=152&run=true,90813,CA,"{""messageId"":""152_0"",""eventCode"":""140"",""eventType"":""SET""}",,false,false,
STATION,153,5th Street,>LAM,,153,,,2020-05-09T21:52:52.437-0400,2020-04-30T11:53:37.026-0400,-118.48869104718784;34.008095951389905;0.0,2406.7;1251.2;0.0,,,TVMEVENTSFTPRULE,2020-05-15T12:13:05.021-0400,2020-05-15T12:13:04.469-0400,153,598 N LONG BEACH BLVD,"https://www.google.com/maps/place/598+N+LONG+BEACH+BLVD,+LONG+BEACH,+CA,+90802,+USA",LONG BEACH,UNASSIGNED,,"[""153_0:140:0""]",140,Device Level,In Service,,0,https://lametro.vizix.io/console/#/analytics/report/execution/OPENEVENTS?StationID=153&run=true,90802,CA,"{""messageId"":""153_0"",""eventCode"":""140"",""eventType"":""SET""}",,false,false,"{""Dispatch"":false,""DispatchStatus"":""UNASSIGNED"",""DispatchedAssociate"":""""}"
STATION,154,1st Street,>LAM,,154,,,2020-05-09T21:52:52.426-0400,2020-04-30T11:53:36.981-0400,-118.48869104718786;34.007813574027146;0.0,2406.7;1148.1;0.0,,,TVMEVENTSFTPRULE,2020-05-15T12:13:05.126-0400,2020-05-15T12:13:04.719-0400,154,108 N LONG BEACH BLVD,"https://www.google.com/maps/place/108+N+LONG+BEACH+BLVD,+LONG+BEACH,+CA,+90802,+USA",LONG BEACH,UNASSIGNED,,"[""154_0:140:0""]",140,Device Level,In Service,,0,https://lametro.vizix.io/console/#/analytics/report/execution/OPENEVENTS?StationID=154&run=true,90802,CA,"{""messageId"":""154_0"",""eventCode"":""140"",""eventType"":""SET""}",,false,false,
STATION,155,Transit Mall,>LAM,,155,,,2020-05-09T21:52:52.415-0400,2020-04-30T11:53:37.055-0400,-118.48898112773897;34.007826559209505;0.0,2318.8;1152.8;0.0,,,TVMEVENTSFTPRULE,2020-05-15T12:13:05.126-0400,2020-05-15T12:13:04.537-0400,155,128 W 1ST ST,"https://www.google.com/maps/place/128+W+1ST+ST,+LOS+ANGELES,+CA,+90802,+USA",LOS ANGELES,UNASSIGNED,,"[""155_0:140:0""]",140,Device Level,In Service,,0,https://lametro.vizix.io/console/#/analytics/report/execution/OPENEVENTS?StationID=155&run=true,90802,CA,"{""messageId"":""155_0"",""eventCode"":""140"",""eventType"":""SET""}",,false,false,"{""Dispatch"":false,""DispatchStatus"":""UNASSIGNED"",""DispatchedAssociate"":""""}"
STATION,156,Pacific Av,>LAM,,156,,,2020-05-09T21:52:52.405-0400,2020-04-30T11:53:36.982-0400,-118.48897402023893;34.00809372794723;0.0,2321.0;1250.4;0.0,,,TVMEVENTSFTPRULE,2020-05-15T12:13:05.377-0400,2020-05-15T12:13:04.648-0400,156,498 PACIFIC AVE,"https://www.google.com/maps/place/498+PACIFIC+AVE,+LONG+BEACH,+CA,+90802,+USA",LONG BEACH,UNASSIGNED,,"[""156_0:140:0""]",140,Device Level,In Service,,0,https://lametro.vizix.io/console/#/analytics/report/execution/OPENEVENTS?StationID=156&run=true,90802,CA,"{""messageId"":""156_0"",""eventCode"":""140"",""eventType"":""SET""}",,false,false,
STATION,157,Union Station (Gold),>LAM,,157,,,2020-05-09T21:52:52.272-0400,2020-04-30T11:53:37.051-0400,-118.48764364456754;34.01370439381563;0.0,2723.8;3299.6;0.0,,,TVMEVENTSFTPRULE,2020-05-15T12:13:05.224-0400,2020-05-15T12:13:04.719-0400,157,801 VIGNES ST,"https://www.google.com/maps/place/801+VIGNES+ST,+LOS+ANGELES,+CA,+90012,+USA",LOS ANGELES,UNASSIGNED,,"[""157_0:140:0""]",140,Device Level,In Service,,0,https://lametro.vizix.io/console/#/analytics/report/execution/OPENEVENTS?StationID=157&run=true,90012,CA,"{""messageId"":""157_0"",""eventCode"":""140"",""eventType"":""SET""}",,false,false,
STATION,158,Chinatown,>LAM,,158,,,2020-05-09T21:52:52.262-0400,2020-04-30T11:53:36.977-0400,-118.48766644334417;34.01413904653883;0.0,2716.9;3458.3;0.0,,,TVMEVENTSFTPRULE,2020-05-15T12:13:04.829-0400,2020-05-15T12:13:04.347-0400,158,901 N SPRING ST,"https://www.google.com/maps/place/901+N+SPRING+ST,+LOS+ANGELES,+CA,+90012,+USA",LOS ANGELES,UNASSIGNED,,"[""158_0:140:0""]",140,Device Level,In Service,,0,https://lametro.vizix.io/console/#/analytics/report/execution/OPENEVENTS?StationID=158&run=true,90012,CA,"{""messageId"":""158_0"",""eventCode"":""140"",""eventType"":""SET""}",,false,false,
STATION,159,Lincoln/Cypress,>LAM,,159,,,2020-05-09T21:52:52.246-0400,2020-04-30T11:53:37.055-0400,-118.4876718077622;34.014416956318655;0.0,2715.3;3559.8;0.0,,,TVMEVENTSFTPRULE,2020-05-15T12:13:04.845-0400,2020-05-15T12:13:04.220-0400,159,370 W AVE 26,"https://www.google.com/maps/place/370+W+AVE+26,+LOS+ANGELES,+CA,+90031,+USA",LOS ANGELES,UNASSIGNED,,"[""159_0:140:0""]",140,Device Level,In Service,,0,https://lametro.vizix.io/console/#/analytics/report/execution/OPENEVENTS?StationID=159&run=true,90031,CA,"{""messageId"":""159_0"",""eventCode"":""140"",""eventType"":""SET""}",,false,false,
STATION,160,Heritage Square,>LAM,,160,,,2020-05-09T21:52:51.835-0400,2020-04-30T11:53:37.026-0400,-118.48766778444869;34.01470375825431;0.0,2716.5;3664.5;0.0,,,SERVICES,2020-05-15T12:26:49.908-0400,2020-05-15T12:26:49.791-0400,160,3545 PASADENA AVE,"https://www.google.com/maps/place/3545+PASADENA+AVE,+LOS+ANGELES,+CA,+90031,+USA",LOS ANGELES,UNASSIGNED,,[],,,,,,https://lametro.vizix.io/console/#/analytics/report/execution/OPENEVENTS?StationID=160&run=true,90031,CA,,,false,false,"{""Dispatch"":false,""DispatchStatus"":""UNASSIGNED"",""DispatchedAssociate"":""""}"
STATION,161,Southwest Museum,>LAM,,161,,,2020-05-09T21:52:52.232-0400,2020-04-30T11:53:36.977-0400,-118.4876704666577;34.01497610803511;0.0,2715.7;3764.0;0.0,,,TVMEVENTSFTPRULE,2020-05-15T12:13:05.008-0400,2020-05-15T12:13:04.501-0400,161,4600 MARMION WAY,"https://www.google.com/maps/place/4600+MARMION+WAY,+LOS+ANGELES,+CA,+90065,+USA",LOS ANGELES,UNASSIGNED,,"[""161_0:140:0""]",140,Device Level,In Service,,0,https://lametro.vizix.io/console/#/analytics/report/execution/OPENEVENTS?StationID=161&run=true,90065,CA,"{""messageId"":""161_0"",""eventCode"":""140"",""eventType"":""SET""}",,false,false,
STATION,162,Highland Park,>LAM,,162,,,2020-05-09T21:52:52.216-0400,2020-04-30T11:53:37.055-0400,-118.48766242003063;34.01524623369378;0.0,2718.1;3862.7;0.0,,,TVMEVENTSFTPRULE,2020-05-15T12:13:05.231-0400,2020-05-15T12:13:04.719-0400,162,151 N AVE 57,"https://www.google.com/maps/place/151+N+AVE+57,+LOS+ANGELES,+CA,+90042,+USA",LOS ANGELES,UNASSIGNED,,"[""162_0:140:0""]",140,Device Level,In Service,,0,https://lametro.vizix.io/console/#/analytics/report/execution/OPENEVENTS?StationID=162&run=true,90042,CA,"{""messageId"":""162_0"",""eventCode"":""140"",""eventType"":""SET""}",,false,false,
STATION,163,South Pasadena,>LAM,,163,,,2020-05-09T21:52:52.203-0400,2020-04-30T11:53:37.033-0400,-118.48766778444869;34.01552969795621;0.0,2716.5;3966.2;0.0,,,TVMEVENTSFTPRULE,2020-05-15T12:13:05.141-0400,2020-05-15T12:13:04.746-0400,163,905 MERIDIAN AVE SOUTH,"https://www.google.com/maps/place/905+MERIDIAN+AVE+SOUTH,+SOUTH+PASADENA,+CA,+91030,+USA",SOUTH PASADENA,UNASSIGNED,,"[""163_0:140:0""]",140,Device Level,In Service,,0,https://lametro.vizix.io/console/#/analytics/report/execution/OPENEVENTS?StationID=163&run=true,91030,CA,"{""messageId"":""163_0"",""eventCode"":""140"",""eventType"":""SET""}",,false,false,
STATION,164,Fillmore,>LAM,,164,,,2020-05-09T21:52:52.160-0400,2020-04-30T11:53:36.949-0400,-118.4876691255532;34.01580426832564;0.0,2716.1;4066.5;0.0,,,SERVICES,2020-05-09T21:52:52.265-0400,,164,95 FILMORE ST,"https://www.google.com/maps/place/95+FILMORE+ST,+PASADENA,+CA,+91105,+USA",PASADENA,UNASSIGNED,,[],,,,,,https://lametro.vizix.io/console/#/analytics/report/execution/OPENEVENTS?StationID=164&run=true,91105,CA,,,false,false,
STATION,1649,Baldwin Hills,>LAM,,1649,,,2020-05-09T21:52:52.675-0400,2020-04-30T11:53:37.053-0400,-118.49153324961664;34.012360046935996;0.0,1546.1;2808.6;0.0,,,TVMEVENTSFTPRULE,2020-05-15T12:13:04.714-0400,2020-05-15T12:13:04.275-0400,1649,3650 W MLK BLVD,"https://www.google.com/maps/place/3650+W+MLK+BLVD,+LOS+ANGELES,+CA,+90008,+USA",LOS ANGELES,UNASSIGNED,,"[""1649_0:140:0""]",140,Device Level,In Service,,0,https://lametro.vizix.io/console/#/analytics/report/execution/OPENEVENTS?StationID=1649&run=true,90008,CA,"{""messageId"":""1649_0"",""eventCode"":""140"",""eventType"":""SET""}",,false,false,
STATION,165,Del Mar,>LAM,,165,,,2020-05-09T21:52:52.148-0400,2020-04-30T11:53:36.956-0400,-118.4876704666577;34.01607883780998;0.0,2715.7;4166.8;0.0,,,TVMEVENTSFTPRULE,2020-05-15T12:13:04.862-0400,2020-05-15T12:13:04.488-0400,165,230 S RAYMOND AVE,"https://www.google.com/maps/place/230+S+RAYMOND+AVE,+PASADENA,+CA,+91105,+USA",PASADENA,UNASSIGNED,,"[""165_0:140:0""]",140,Device Level,In Service,,0,https://lametro.vizix.io/console/#/analytics/report/execution/OPENEVENTS?StationID=165&run=true,91105,CA,"{""messageId"":""165_0"",""eventCode"":""140"",""eventType"":""SET""}",,false,false,
STATION,166,Memorial Park,>LAM,,166,,,2020-05-09T21:52:52.128-0400,2020-04-30T11:53:37.053-0400,-118.48767314886672;34.0163567412321;0.0,2714.9;4268.2;0.0,,,TVMEVENTSFTPRULE,2020-05-15T12:13:04.948-0400,2020-05-15T12:13:04.264-0400,166,125 E HOLLY ST,"https://www.google.com/maps/place/125+E+HOLLY+ST,+PASADENA,+CA,+91103,+USA",PASADENA,UNASSIGNED,,"[""166_0:140:0""]",140,Device Level,In Service,,0,https://lametro.vizix.io/console/#/analytics/report/execution/OPENEVENTS?StationID=166&run=true,91103,CA,"{""messageId"":""166_0"",""eventCode"":""140"",""eventType"":""SET""}",,false,false,
STATION,1665,23rd Street,>LAM,,1665,,,2020-05-09T21:52:52.659-0400,2020-04-30T11:53:37.057-0400,-118.48968990147115;34.01294644778172;0.0,2104.3;3022.7;0.0,,,TVMEVENTSFTPRULE,2020-05-15T12:13:05.015-0400,2020-05-15T12:13:04.558-0400,1665,2480 S FLOWER ST,"https://www.google.com/maps/place/2480+S+FLOWER+ST,+LOS+ANGELES,+CA,+90007,+USA",LOS ANGELES,UNASSIGNED,,"[""1665_0:140:0""]",140,Device Level,In Service,,0,https://lametro.vizix.io/console/#/analytics/report/execution/OPENEVENTS?StationID=1665&run=true,90007,CA,"{""messageId"":""1665_0"",""eventCode"":""140"",""eventType"":""SET""}",,false,false,
STATION,1666,Jefferson/USC,>LAM,,1666,,,2020-05-09T21:52:52.646-0400,2020-04-30T11:53:37.059-0400,-118.49001874065021;34.012669444511936;0.0,2004.7;2921.6;0.0,,,TVMEVENTSFTPRULE,2020-05-15T12:13:04.989-0400,2020-05-15T12:13:04.544-0400,1666,3301 S FLOWER ST,"https://www.google.com/maps/place/3301+S+FLOWER+ST,+LOS+ANGELES,+CA,+90007,+USA",LOS ANGELES,UNASSIGNED,,"[""1666_0:140:0""]",140,Device Level,In Service,,0,https://lametro.vizix.io/console/#/analytics/report/execution/OPENEVENTS?StationID=1666&run=true,90007,CA,"{""messageId"":""1666_0"",""eventCode"":""140"",""eventType"":""SET""}",,false,false,
STATION,1667,Expo Park/USC,>LAM,,1667,,,2020-05-09T21:52:52.635-0400,2020-04-30T11:53:37.057-0400,-118.49053104257207;34.01250380696794;0.0,1849.6;2861.1;0.0,,,TVMEVENTSFTPRULE,2020-05-15T12:13:05.363-0400,2020-05-15T12:13:04.644-0400,1667,780 W EXPOSITION BLVD,"https://www.google.com/maps/place/780+W+EXPOSITION+BLVD,+LOS+ANGELES,+CA,+90037,+USA",LOS ANGELES,UNASSIGNED,,"[""1667_0:140:0""]",140,Device Level,In Service,,0,https://lametro.vizix.io/console/#/analytics/report/execution/OPENEVENTS?StationID=1667&run=true,90037,CA,"{""messageId"":""1667_0"",""eventCode"":""140"",""eventType"":""SET""}",,false,false,
STATION,1668,Expo/Vermont,>LAM,,1668,,,2020-05-09T21:52:54.249-0400,2020-04-30T11:53:37.055-0400,-118.49089314078907;34.012509365280465;0.0,1740.0;2863.1;0.0,,,TVMEVENTSFTPRULE,2020-05-15T12:13:05.110-0400,2020-05-15T12:13:04.643-0400,1668,988 W EXPOSITION BLVD,"https://www.google.com/maps/place/988+W+EXPOSITION+BLVD,+LOS+ANGELES,+CA,+90037,+USA",LOS ANGELES,UNASSIGNED,,"[""1668_0:140:0""]",140,Device Level,In Service,,0,https://lametro.vizix.io/console/#/analytics/report/execution/OPENEVENTS?StationID=1668&run=true,90037,CA,"{""messageId"":""1668_0"",""eventCode"":""140"",""eventType"":""SET""}",,false,false,
STATION,1669,Expo/Western,>LAM,,1669,,,2020-05-09T21:52:54.238-0400,2020-04-30T11:53:37.055-0400,-118.49120964145284;34.01250714196673;0.0,1644.1;2862.3;0.0,,,TVMEVENTSFTPRULE,2020-05-15T12:13:04.699-0400,2020-05-15T12:13:04.275-0400,1669,1580 W EXPOSITION BLVD,"https://www.google.com/maps/place/1580+W+EXPOSITION+BLVD,+LOS+ANGELES,+CA,+90062,+USA",LOS ANGELES,UNASSIGNED,,"[""1669_0:140:0""]",140,Device Level,In Service,,0,https://lametro.vizix.io/console/#/analytics/report/execution/OPENEVENTS?StationID=1669&run=true,90062,CA,"{""messageId"":""1669_0"",""eventCode"":""140"",""eventType"":""SET""}",,false,false,
STATION,167,Lake,>LAM,,167,,,2020-05-09T21:52:52.116-0400,2020-04-30T11:53:37.053-0400,-118.48741833901028;34.01659129101684;0.0,2792.0;4353.9;0.0,,,TVMEVENTSFTPRULE,2020-05-15T12:13:04.932-0400,2020-05-15T12:13:04.238-0400,167,340 N LAKE AVE,"https://www.google.com/maps/place/340+N+LAKE+AVE,+PASADENA,+CA,+91101,+USA",PASADENA,UNASSIGNED,,"[""167_0:140:0""]",140,Device Level,In Service,,0,https://lametro.vizix.io/console/#/analytics/report/execution/OPENEVENTS?StationID=167&run=true,91101,CA,"{""messageId"":""167_0"",""eventCode"":""140"",""eventType"":""SET""}",,false,false,
STATION,1670,Expo/Crenshaw,>LAM,,1670,,,2020-05-09T21:52:54.227-0400,2020-04-30T11:53:37.059-0400,-118.49154491757972;34.012517146927635;0.0,1542.6;2865.9;0.0,,,SERVICES,2020-05-09T21:52:54.290-0400,,1670,3427 W EXPOSITION BLVD,"https://www.google.com/maps/place/3427+W+EXPOSITION+BLVD,+LOS+ANGELES,+CA,+90016,+USA",LOS ANGELES,UNASSIGNED,,[],,,,,,https://lametro.vizix.io/console/#/analytics/report/execution/OPENEVENTS?StationID=1670&run=true,90016,CA,,,false,false,
STATION,1671,Farmdale,>LAM,,1671,,,2020-05-09T21:52:54.214-0400,2020-04-30T11:53:37.055-0400,-118.49187348818403;34.012513811938604;0.0,1443.1;2864.7;0.0,,,TVMEVENTSFTPRULE,2020-05-15T12:13:05.178-0400,2020-05-15T12:13:04.651-0400,1671,4420 EXPOSITION BLVD,"https://www.google.com/maps/place/4420+EXPOSITION+BLVD,+LOS+ANGELES,+CA,+90016,+USA",LOS ANGELES,UNASSIGNED,,"[""1671_0:140:0""]",140,Device Level,In Service,,0,https://lametro.vizix.io/console/#/analytics/report/execution/OPENEVENTS?StationID=1671&run=true,90016,CA,"{""messageId"":""1671_0"",""eventCode"":""140"",""eventType"":""SET""}",,false,false,
STATION,1672,Expo/La Brea,>LAM,,1672,,,2020-05-09T21:52:54.202-0400,2020-04-30T11:53:37.055-0400,-118.49221546983344;34.01251492360484;0.0,1339.6;2865.1;0.0,,,TVMEVENTSFTPRULE,2020-05-15T12:13:04.792-0400,2020-05-15T12:13:04.392-0400,1672,5120 EXPOSITION BLVD,"https://www.google.com/maps/place/5120+EXPOSITION+BLVD,+LOS+ANGELES,+CA,+90016,+USA",LOS ANGELES,UNASSIGNED,,"[""1672_0:140:0""]",140,Device Level,In Service,,0,https://lametro.vizix.io/console/#/analytics/report/execution/OPENEVENTS?StationID=1672&run=true,90016,CA,"{""messageId"":""1672_0"",""eventCode"":""140"",""eventType"":""SET""}",,false,false,
STATION,1673,La Cienega/Jefferson,>LAM,,1673,,,2020-05-09T21:52:54.191-0400,2020-04-30T11:53:37.058-0400,-118.49253331160168;34.01250825362109;0.0,1243.4;2862.7;0.0,,,TVMEVENTSFTPRULE,2020-05-15T12:13:05.284-0400,2020-05-15T12:13:04.821-0400,1673,5680 W JEFFERSON BLVD,"https://www.google.com/maps/place/5680+W+JEFFERSON+BLVD,+LOS+ANGELES,+CA,+90016,+USA",LOS ANGELES,UNASSIGNED,,"[""1673_0:140:0""]",140,Device Level,In Service,,0,https://lametro.vizix.io/console/#/analytics/report/execution/OPENEVENTS?StationID=1673&run=true,90016,CA,"{""messageId"":""1673_0"",""eventCode"":""140"",""eventType"":""SET""}",,false,false,
STATION,168,Allen,>LAM,,168,,,2020-05-09T21:52:51.976-0400,2020-04-30T11:53:37.060-0400,-118.4870790395699;34.01659017941501;0.0,2894.7;4353.5;0.0,,,TVMEVENTSFTPRULE,2020-05-15T12:13:04.526-0400,2020-05-15T12:13:04.221-0400,168,395 N ALLEN,"https://www.google.com/maps/place/395+N+ALLEN,+PASADENA,+CA,+91106,+USA",PASADENA,UNASSIGNED,,"[""168_0:140:0""]",140,Device Level,In Service,,0,https://lametro.vizix.io/console/#/analytics/report/execution/OPENEVENTS?StationID=168&run=true,91106,CA,"{""messageId"":""168_0"",""eventCode"":""140"",""eventType"":""SET""}",,false,false,
STATION,169,Sierra Madre Villa,>LAM,,169,,,2020-05-09T21:52:51.953-0400,2020-04-30T11:53:37.053-0400,-118.48674778675657;34.0165924026297;0.0,2995.0;4354.3;0.0,,,TVMEVENTSFTPRULE,2020-05-15T12:13:05.023-0400,2020-05-15T12:13:04.422-0400,169,149 N HALSTEAD,"https://www.google.com/maps/place/149+N+HALSTEAD,+PASADENA,+CA,+91107,+USA",PASADENA,UNASSIGNED,,"[""169_0:140:0""]",140,Device Level,In Service,,0,https://lametro.vizix.io/console/#/analytics/report/execution/OPENEVENTS?StationID=169&run=true,91107,CA,"{""messageId"":""169_0"",""eventCode"":""140"",""eventType"":""SET""}",,false,false,
STATION,170,Redondo Beach,>LAM,,170,,,2020-05-09T21:52:51.965-0400,2020-04-30T11:53:37.053-0400,-118.49147249793629;34.009163195904236;0.0,1564.5;1641.0;0.0,,,TVMEVENTSFTPRULE,2020-06-05T11:33:21.795-0400,2020-06-05T11:33:21.672-0400,170,5301 MARINE AVE,"https://www.google.com/maps/place/5301+MARINE+AVE,+REDONDO+BEACH,+CA,+90278,+USA",REDONDO BEACH,UNASSIGNED,,"[""8000:140:0""]",140,Device Level,In Service,,0,https://lametro.vizix.io/console/#/analytics/report/execution/OPENEVENTS?StationID=170&run=true,90278,CA,"{""messageId"":""8000_2"",""eventCode"":""212"",""eventType"":""CLEAR""}",,false,false,"{""Dispatch"":true,""DispatchStatus"":""ASSIGNED"",""DispatchedAssociate"":""Chris Evans""}"
STATION,1708,Sherman Way,>LAM,,1708,,,2020-05-09T21:52:54.179-0400,2020-04-30T11:53:37.026-0400,-118.49518132186861;34.01619653559908;0.0,441.6;4209.7;0.0,,,TVMEVENTSFTPRULE,2020-05-15T12:13:05.172-0400,2020-05-15T12:13:04.754-0400,1708,8270 CANOGA AVE,"https://www.google.com/maps/place/8270+CANOGA+AVE,+CANOGA+PARK,+CA,+91304,+USA",CANOGA PARK,UNASSIGNED,,"[""1708_0:140:0""]",140,Device Level,In Service,,0,https://lametro.vizix.io/console/#/analytics/report/execution/OPENEVENTS?StationID=1708&run=true,91304,CA,"{""messageId"":""1708_0"",""eventCode"":""140"",""eventType"":""SET""}",,false,false,
STATION,1709,Roscoe,>LAM,,1709,,,2020-05-09T21:52:53.735-0400,2020-04-30T11:53:37.026-0400,-118.49517488466519;34.01648644415222;0.0,443.6;4315.6;0.0,,,TVMEVENTSFTPRULE,2020-05-15T12:13:04.931-0400,2020-05-15T12:13:04.313-0400,1709,9110 CANOGA AVE,"https://www.google.com/maps/place/9110+CANOGA+AVE,+CHATSWORTH,+CA,+91311,+USA",CHATSWORTH,UNASSIGNED,,"[""1709_0:140:0""]",140,Device Level,In Service,,0,https://lametro.vizix.io/console/#/analytics/report/execution/OPENEVENTS?StationID=1709&run=true,91311,CA,"{""messageId"":""1709_0"",""eventCode"":""140"",""eventType"":""SET""}",,false,false,
STATION,171,Douglas,>LAM,,171,,,2020-05-09T21:52:53.174-0400,2020-04-30T11:53:36.982-0400,-118.49148590898136;34.00943000495268;0.0,1560.5;1738.5;0.0,,,TVMEVENTSFTPRULE,2020-05-15T14:28:04.137-0400,2020-05-15T14:28:04.031-0400,171,700 S DOUGLAS ST,"https://www.google.com/maps/place/700+S+DOUGLAS+ST,+EL+SEGUNDO,+CA,+90245,+USA",EL SEGUNDO,UNASSIGNED,,"[""171_01:140:0""]",140,Device Level,In Service,,0,https://lametro.vizix.io/console/#/analytics/report/execution/OPENEVENTS?StationID=171&run=true,90245,CA,"{""messageId"":""171_01"",""eventCode"":""140"",""eventType"":""SET""}",,false,false,"{""Dispatch"":false,""DispatchStatus"":""UNASSIGNED"",""DispatchedAssociate"":""""}"
STATION,1710,Nordhoff,>LAM,,1710,,,2020-05-09T21:52:53.724-0400,2020-04-30T11:53:36.955-0400,-118.49517273893072;34.016753230243054;0.0,444.2;4413.1;0.0,,,TVMEVENTSFTPRULE,2020-05-15T12:13:04.984-0400,2020-05-15T12:13:04.382-0400,1710,1 GATEWAY PLZ,"https://www.google.com/maps/place/1+GATEWAY+PLZ,+LOS+ANGELES,+CA,+90012,+USA",LOS ANGELES,UNASSIGNED,,"[""1710_0:140:0""]",140,Device Level,In Service,,0,https://lametro.vizix.io/console/#/analytics/report/execution/OPENEVENTS?StationID=1710&run=true,90012,CA,"{""messageId"":""1710_0"",""eventCode"":""140"",""eventType"":""SET""}",,false,false,
STATION,1711,Chatsworth,>LAM,,1711,,,2020-05-09T21:52:53.712-0400,2020-04-30T11:53:37.033-0400,-118.49517488450148;34.01712317211646;0.0,443.6;4548.2;0.0,,,TVMEVENTSFTPRULE,2020-06-10T11:32:06.085-0400,2020-06-10T11:32:05.975-0400,1711,21501 LASSEN ST,"https://www.google.com/maps/place/21501+LASSEN+ST,+CHATSWORTH,+CA,+91311,+USA",CHATSWORTH,UNASSIGNED,,"[""1711_0:140:0"",""30001:140:0"",""30000:140:0"",""30004:140:0"",""30006:407:1""]",407,Bill System,Billbox Removed / Inserted,OOS,1,https://lametro.vizix.io/console/#/analytics/report/execution/OPENEVENTS?StationID=1711&run=true,91311,CA,"{""messageId"":""30007"",""eventCode"":""212"",""eventType"":""CLEAR""}",,false,false,"{""Dispatch"":true,""DispatchStatus"":""ASSIGNED"",""DispatchedAssociate"":""Chris Evans""}"
STATION,1712,Culver City,>LAM,,1712,,,2020-05-09T21:52:53.700-0400,2020-04-30T11:53:36.982-0400,-118.49287864601234;34.012517146924324;0.0,1138.8;2865.9;0.0,,,TVMEVENTSFTPRULE,2020-05-15T12:13:05.193-0400,2020-05-15T12:13:04.718-0400,1712,7170 CANOGA AVE,"https://www.google.com/maps/place/7170+CANOGA+AVE,+CANOGA+PARK,+CA,+91303,+USA",CANOGA PARK,UNASSIGNED,,"[""1712_0:140:0""]",140,Device Level,In Service,,0,https://lametro.vizix.io/console/#/analytics/report/execution/OPENEVENTS?StationID=1712&run=true,91303,CA,"{""messageId"":""1712_0"",""eventCode"":""140"",""eventType"":""SET""}",,false,false,
STATION,172,El Segundo,>LAM,,172,,,2020-05-09T21:52:53.164-0400,2020-04-30T11:53:36.978-0400,-118.49148590898137;34.0097190471372;0.0,1560.5;1844.0;0.0,,,TVMEVENTSFTPRULE,2020-05-21T13:16:32.868-0400,2020-05-21T13:16:32.757-0400,172,2226 E ELSEGUNDO BLVD,"https://www.google.com/maps/place/2226+E+ELSEGUNDO+BLVD,+EL+SEGUNDO,+CA,+90245,+USA",EL SEGUNDO,UNASSIGNED,,[],140,Device Level,In Service,,0,https://lametro.vizix.io/console/#/analytics/report/execution/OPENEVENTS?StationID=172&run=true,90245,CA,"{""messageId"":""172_0"",""eventCode"":""140"",""eventType"":""CLEAR""}",,false,true,"{""Dispatch"":true,""DispatchStatus"":""ASSIGNED"",""DispatchedAssociate"":""John Smith""}"
STATION,173,Mariposa,>LAM,,173,,,2020-05-09T21:52:53.155-0400,2020-04-30T11:53:36.944-0400,-118.49150200223545;34.00999697137304;0.0,1555.6;1945.5;0.0,,,TVMEVENTSFTPRULE,2020-05-15T12:13:04.688-0400,2020-05-15T12:13:04.247-0400,173,555 N NASH ST,"https://www.google.com/maps/place/555+N+NASH+ST,+EL+SEGUNDO,+CA,+90245,+USA",EL SEGUNDO,UNASSIGNED,,"[""173_0:140:0""]",140,Device Level,In Service,,0,https://lametro.vizix.io/console/#/analytics/report/execution/OPENEVENTS?StationID=173&run=true,90245,CA,"{""messageId"":""173_0"",""eventCode"":""140"",""eventType"":""SET""}",,false,false,
STATION,174,Aviation/LAX,>LAM,,174,,,2020-05-09T21:52:53.137-0400,2020-04-30T11:53:37.033-0400,-118.49132765864948;34.01022153349257;0.0,1608.4;2027.5;0.0,,,TVMEVENTSFTPRULE,2020-05-15T12:13:04.863-0400,2020-05-15T12:13:04.261-0400,174,11500 AVIATION BLVD,"https://www.google.com/maps/place/11500+AVIATION+BLVD,+LOS+ANGELES,+CA,+90048,+USA",LOS ANGELES,UNASSIGNED,,"[""174_0:140:0""]",140,Device Level,In Service,,0,https://lametro.vizix.io/console/#/analytics/report/execution/OPENEVENTS?StationID=174&run=true,90048,CA,"{""messageId"":""174_0"",""eventCode"":""140"",""eventType"":""SET""}",,false,false,
STATION,1749,El Monte Bus Facility,>LAM,,1749,,,2020-05-09T21:52:53.688-0400,2020-04-30T11:53:36.949-0400,-118.4856226000748;34.01360545720374;0.0,3335.7;3263.4;0.0,,,TVMEVENTSFTPRULE,2020-05-15T12:13:04.943-0400,2020-05-15T12:13:04.490-0400,1749,3449 SANTA ANITA AVE,"https://www.google.com/maps/place/3449+SANTA+ANITA+AVE,+EL+MONTE,+CA,+91731,+USA",EL MONTE,UNASSIGNED,,"[""1749_0:140:0""]",140,Device Level,In Service,,0,https://lametro.vizix.io/console/#/analytics/report/execution/OPENEVENTS?StationID=1749&run=true,91731,CA,"{""messageId"":""1749_0"",""eventCode"":""140"",""eventType"":""SET""}",,false,false,
STATION,175,Hawthorne/Lennox,>LAM,,175,,,2020-05-09T21:52:53.099-0400,2020-04-30T11:53:36.978-0400,-118.4908636364899;34.01023932057919;0.0,1748.9;2034.0;0.0,,,TVMEVENTSFTPRULE,2020-05-15T12:13:05.209-0400,2020-05-15T12:13:04.730-0400,175,11230 S ACACIA ST,"https://www.google.com/maps/place/11230+S+ACACIA+ST,+INGLEWOOD,+CA,+90304,+USA",INGLEWOOD,UNASSIGNED,,"[""175_0:140:0""]",140,Device Level,In Service,,0,https://lametro.vizix.io/console/#/analytics/report/execution/OPENEVENTS?StationID=175&run=true,90304,CA,"{""messageId"":""175_0"",""eventCode"":""140"",""eventType"":""SET""}",,false,false,"{""Dispatch"":false,""DispatchStatus"":""UNASSIGNED"",""DispatchedAssociate"":""""}"
STATION,176,Crenshaw,>LAM,,176,,,2020-05-09T21:52:53.090-0400,2020-04-30T11:53:36.949-0400,-118.49053104257206;34.01023265041637;0.0,1849.6;2031.6;0.0,,,TVMEVENTSFTPRULE,2020-05-15T12:13:05.306-0400,2020-05-15T12:13:04.734-0400,176,11901 S CRENSHAW BLVD,"https://www.google.com/maps/place/11901+S+CRENSHAW+BLVD,+INGLEWOOD,+CA,+90303,+USA",INGLEWOOD,UNASSIGNED,,"[""176_0:140:0""]",140,Device Level,In Service,,0,https://lametro.vizix.io/console/#/analytics/report/execution/OPENEVENTS?StationID=176&run=true,90303,CA,"{""messageId"":""176_0"",""eventCode"":""140"",""eventType"":""SET""}",,false,false,
STATION,177,Vermont/Athens,>LAM,,177,,,2020-05-09T21:52:53.080-0400,2020-04-30T11:53:36.978-0400,-118.49019844865423;34.01024821410175;0.0,1950.3;2037.3;0.0,,,TVMEVENTSFTPRULE,2020-05-15T12:13:05.038-0400,2020-05-15T12:13:04.647-0400,177,11603 S VERMONT AVE,"https://www.google.com/maps/place/11603+S+VERMONT+AVE,+LOS+ANGELES,+CA,+90048,+USA",LOS ANGELES,UNASSIGNED,,"[""177_0:140:0""]",140,Device Level,In Service,,0,https://lametro.vizix.io/console/#/analytics/report/execution/OPENEVENTS?StationID=177&run=true,90048,CA,"{""messageId"":""177_0"",""eventCode"":""140"",""eventType"":""SET""}",,false,false,
STATION,178,Harbor Freeway,>LAM,,178,,,2020-05-09T21:52:53.068-0400,2020-04-30T11:53:37.033-0400,-118.48975856637577;34.010252660803815;0.0,2083.5;2038.9;0.0,,,TVMEVENTSFTPRULE,2020-05-15T12:13:05.022-0400,2020-05-15T12:13:04.502-0400,178,11500 S FIGUEROE ST,"https://www.google.com/maps/place/11500+S+FIGUEROE+ST,+LOS+ANGELES,+CA,+90048,+USA",LOS ANGELES,UNASSIGNED,,"[""178_0:140:0""]",140,Device Level,In Service,,0,https://lametro.vizix.io/console/#/analytics/report/execution/OPENEVENTS?StationID=178&run=true,90048,CA,"{""messageId"":""178_0"",""eventCode"":""140"",""eventType"":""SET""}",,false,false,
STATION,179,Avalon,>LAM,,179,,,2020-05-09T21:52:53.059-0400,2020-04-30T11:53:37.051-0400,-118.48925431108098;34.01023932054579;0.0,2236.1;2034.0;0.0,,,TVMEVENTSFTPRULE,2020-05-15T12:13:04.952-0400,2020-05-15T12:13:04.424-0400,179,11667 S AVALON BLVD,"https://www.google.com/maps/place/11667+S+AVALON+BLVD,+LOS+ANGELES,+CA,+90067,+USA",LOS ANGELES,UNASSIGNED,,"[""179_0:140:0""]",140,Device Level,In Service,,0,https://lametro.vizix.io/console/#/analytics/report/execution/OPENEVENTS?StationID=179&run=true,90067,CA,"{""messageId"":""179_0"",""eventCode"":""140"",""eventType"":""SET""}",,false,false,
STATION,180,Willowbrook (Green),>LAM,,180,,,2020-05-09T21:52:52.222-0400,2020-04-30T11:53:36.981-0400,-118.48883186316111;34.010217086732425;0.0,2364.0;2025.9;0.0,,,TVMEVENTSFTPRULE,2020-05-15T12:13:05.005-0400,2020-05-15T12:13:04.374-0400,180,11611 WILLOWBROOK AVE,"https://www.google.com/maps/place/11611+WILLOWBROOK+AVE,+LOS+ANGELES,+CA,+90059,+USA",LOS ANGELES,UNASSIGNED,,"[""180_0:140:0""]",140,Device Level,In Service,,0,https://lametro.vizix.io/console/#/analytics/report/execution/OPENEVENTS?StationID=180&run=true,90059,CA,"{""messageId"":""180_0"",""eventCode"":""140"",""eventType"":""SET""}",,false,false,"{""Dispatch"":false,""DispatchStatus"":""UNASSIGNED"",""DispatchedAssociate"":""""}"
STATION,181,Long Beach Bl,>LAM,,181,,,2020-05-09T21:52:52.952-0400,2020-04-30T11:53:37.033-0400,-118.4878729734383;34.01025154919121;0.0,2654.4;2038.5;0.0,,,TVMEVENTSFTPRULE,2020-05-15T12:13:05.216-0400,2020-05-15T12:13:04.526-0400,181,1108 LONG BEACH BLVD,"https://www.google.com/maps/place/1108+LONG+BEACH+BLVD,+LYNWOOD,+CA,+90262,+USA",LYNWOOD,UNASSIGNED,,"[""181_0:140:0""]",140,Device Level,In Service,,0,https://lametro.vizix.io/console/#/analytics/report/execution/OPENEVENTS?StationID=181&run=true,90262,CA,"{""messageId"":""181_0"",""eventCode"":""140"",""eventType"":""SET""}",,false,false,"{""Dispatch"":false,""DispatchStatus"":""UNASSIGNED"",""DispatchedAssociate"":""""}"
STATION,182,Lakewood Bl,>LAM,,182,,,2020-05-09T21:52:52.941-0400,2020-04-30T11:53:37.056-0400,-118.48742102121932;34.01024932580553;0.0,2791.2;2037.7;0.0,,,TVMEVENTSFTPRULE,2020-05-15T12:13:05.037-0400,2020-05-15T12:13:04.396-0400,182,12801 LAKEWOOD AVE,"https://www.google.com/maps/place/12801+LAKEWOOD+AVE,+DOWNEY,+CA,+90241,+USA",DOWNEY,UNASSIGNED,,"[""182_0:140:0""]",140,Device Level,In Service,,0,https://lametro.vizix.io/console/#/analytics/report/execution/OPENEVENTS?StationID=182&run=true,90241,CA,"{""messageId"":""182_0"",""eventCode"":""140"",""eventType"":""SET""}",,false,false,
STATION,183,Norwalk,>LAM,,183,,,2020-05-09T21:52:52.930-0400,2020-04-30T11:53:36.936-0400,-118.48702539538962;34.01024821411852;0.0,2911.0;2037.3;0.0,,,TVMEVENTSFTPRULE,2020-05-15T12:13:04.886-0400,2020-05-15T12:13:04.263-0400,183,12901 HOXIE AVE,"https://www.google.com/maps/place/12901+HOXIE+AVE,+NORWALK,+CA,+90650,+USA",NORWALK,UNASSIGNED,,"[""183_0:140:0""]",140,Device Level,In Service,,0,https://lametro.vizix.io/console/#/analytics/report/execution/OPENEVENTS?StationID=183&run=true,90650,CA,"{""messageId"":""183_0"",""eventCode"":""140"",""eventType"":""SET""}",,false,false,
STATION,1873,Palms,>LAM,,1873,,,2020-05-09T21:52:53.677-0400,2020-04-30T11:53:37.055-0400,-118.49321325158697;34.01251714692078;0.0,1037.5;2865.9;0.0,,,TVMEVENTSFTPRULE,2020-05-15T12:13:05.156-0400,2020-05-15T12:13:04.837-0400,1873,10021 NATIONAL BLVD,"https://www.google.com/maps/place/10021+NATIONAL+BLVD,+LOS+ANGELES,+CA,+90034,+USA",LOS ANGELES,UNASSIGNED,,"[""1873_0:140:0""]",140,Device Level,In Service,,0,https://lametro.vizix.io/console/#/analytics/report/execution/OPENEVENTS?StationID=1873&run=true,90034,CA,"{""messageId"":""1873_0"",""eventCode"":""140"",""eventType"":""SET""}",,false,false,
STATION,1874,Westwood/Rancho Park,>LAM,,1874,,,2020-05-09T21:52:53.665-0400,2020-04-30T11:53:37.053-0400,-118.49354450440029;34.01251492359995;0.0,937.2;2865.1;0.0,,,TVMEVENTSFTPRULE,2020-05-15T12:13:05.037-0400,2020-05-15T12:13:04.647-0400,1874,10800 W EXPOSITION BLVD,"https://www.google.com/maps/place/10800+W+EXPOSITION+BLVD,+LOS+ANGELES,+CA,+90064,+USA",LOS ANGELES,UNASSIGNED,,"[""1874_0:140:0""]",140,Device Level,In Service,,0,https://lametro.vizix.io/console/#/analytics/report/execution/OPENEVENTS?StationID=1874&run=true,90064,CA,"{""messageId"":""1874_0"",""eventCode"":""140"",""eventType"":""SET""}",,false,false,
STATION,1875,Expo/Sepulveda,>LAM,,1875,,,2020-05-09T21:52:53.315-0400,2020-04-30T11:53:36.961-0400,-118.49387307500461;34.012509365287926;0.0,837.7;2863.1;0.0,,,TVMEVENTSFTPRULE,2020-05-15T12:13:04.835-0400,2020-05-15T12:13:04.294-0400,1875,11295 EXPOSITION BLVD,"https://www.google.com/maps/place/11295+EXPOSITION+BLVD,+LOS+ANGELES,+CA,+90064,+USA",LOS ANGELES,UNASSIGNED,,"[""1875_0:140:0""]",140,Device Level,In Service,,0,https://lametro.vizix.io/console/#/analytics/report/execution/OPENEVENTS?StationID=1875&run=true,90064,CA,"{""messageId"":""1875_0"",""eventCode"":""140"",""eventType"":""SET""}",,false,false,
STATION,1876,Expo/Bundy,>LAM,,1876,,,2020-05-09T21:52:53.302-0400,2020-04-30T11:53:37.033-0400,-118.4942110333405;34.01251047695105;0.0,735.4;2863.5;0.0,,,TVMEVENTSFTPRULE,2020-05-15T12:13:04.760-0400,2020-05-15T12:13:04.273-0400,1876,12201 EXPOSITION BLVD,"https://www.google.com/maps/place/12201+EXPOSITION+BLVD,+LOS+ANGELES,+CA,+90064,+USA",LOS ANGELES,UNASSIGNED,,"[""1876_0:140:0""]",140,Device Level,In Service,,0,https://lametro.vizix.io/console/#/analytics/report/execution/OPENEVENTS?StationID=1876&run=true,90064,CA,"{""messageId"":""1876_0"",""eventCode"":""140"",""eventType"":""SET""}",,false,false,
STATION,1877,26th St/Bergamot,>LAM,,1877,,,2020-05-09T21:52:53.291-0400,2020-04-30T11:53:36.981-0400,-118.49454765057186;34.012513811938604;0.0,633.5;2864.7;0.0,,,TVMEVENTSFTPRULE,2020-05-15T12:13:04.745-0400,2020-05-15T12:13:04.288-0400,1877,2602 OLYMPIC BLVD,"https://www.google.com/maps/place/2602+OLYMPIC+BLVD,+SANTA+MONICA,+CA,+90404,+USA",SANTA MONICA,UNASSIGNED,,"[""1877_0:140:0""]",140,Device Level,In Service,,0,https://lametro.vizix.io/console/#/analytics/report/execution/OPENEVENTS?StationID=1877&run=true,90404,CA,"{""messageId"":""1877_0"",""eventCode"":""140"",""eventType"":""SET""}",,false,false,
STATION,1878,17th St/SMC,>LAM,,1878,,,2020-05-09T21:52:53.281-0400,2020-04-30T11:53:37.033-0400,-118.49488024448974;34.01251270027553;0.0,532.8;2864.3;0.0,,,TVMEVENTSFTPRULE,2020-05-15T12:13:05.406-0400,2020-05-15T12:13:04.850-0400,1878,1610 COLORADO BLVD,"https://www.google.com/maps/place/1610+COLORADO+BLVD,+SANTA+MONICA,+CA,+90404,+USA",SANTA MONICA,UNASSIGNED,,"[""1878_0:140:0""]",140,Device Level,In Service,,0,https://lametro.vizix.io/console/#/analytics/report/execution/OPENEVENTS?StationID=1878&run=true,90404,CA,"{""messageId"":""1878_0"",""eventCode"":""140"",""eventType"":""SET""}",,false,false,
STATION,1879,Downtown Santa Monica,>LAM,,1879,,,2020-05-09T21:52:53.270-0400,2020-04-30T11:53:37.051-0400,-118.49521283840757;34.01251937024507;0.0,432.1;2866.8;0.0,,,TVMEVENTSFTPRULE,2020-05-15T12:13:05.126-0400,2020-05-15T12:13:04.719-0400,1879,402 A COLORADO AVE,"https://www.google.com/maps/place/402+A+COLORADO+AVE,+SANTA+MONICA,+CA,+90401,+USA",SANTA MONICA,UNASSIGNED,,"[""1879_0:140:0""]",140,Device Level,In Service,,0,https://lametro.vizix.io/console/#/analytics/report/execution/OPENEVENTS?StationID=1879&run=true,90401,CA,"{""messageId"":""1879_0"",""eventCode"":""140"",""eventType"":""SET""}",,false,false,
STATION,1910,Cal State LA,>LAM,,1910,,,2020-05-09T21:52:53.259-0400,2020-04-30T11:53:37.056-0400,-118.48619927501302;34.01361657368414;0.0,3161.1;3267.5;0.0,,,SERVICES,2020-05-09T21:52:53.281-0400,,1910,5150 STATE UNIVERSITY DR,"https://www.google.com/maps/place/5150+STATE+UNIVERSITY+DR,+LOS+ANGELES,+CA,+90032,+USA",LOS ANGELES,UNASSIGNED,,[],,,,,,https://lametro.vizix.io/console/#/analytics/report/execution/OPENEVENTS?StationID=1910&run=true,90032,CA,,,false,false,
STATION,1911,LAC USC Medical Center,>LAM,,1911,,,2020-05-09T21:52:53.248-0400,2020-04-30T11:53:36.980-0400,-118.48663915729148;34.01362102028233;0.0,3027.9;3269.1;0.0,,,TVMEVENTSFTPRULE,2020-05-15T12:13:05.111-0400,2020-05-15T12:13:04.646-0400,1911,1930 POMEROY AVE,"https://www.google.com/maps/place/1930+POMEROY+AVE,+LOS+ANGELES,+CA,+90033,+USA",LOS ANGELES,UNASSIGNED,,"[""1911_0:140:0""]",140,Device Level,In Service,,0,https://lametro.vizix.io/console/#/analytics/report/execution/OPENEVENTS?StationID=1911&run=true,90033,CA,"{""messageId"":""1911_0"",""eventCode"":""140"",""eventType"":""SET""}",,false,false,
STATION,1912,37th St/USC-Silver,>LAM,,1912,,,2020-05-09T21:52:53.236-0400,2020-04-30T11:53:36.936-0400,-118.48972906207662;34.01243599554637;0.0,2092.4;2836.3;0.0,,,TVMEVENTSFTPRULE,2020-05-15T12:13:05.334-0400,2020-05-15T12:13:04.471-0400,1912,421 1/2 W 37TH ST,"https://www.google.com/maps/place/421+1/2+W+37TH+ST,+LOS+ANGELES,+CA,+90007,+USA",LOS ANGELES,UNASSIGNED,,"[""1912_0:140:0""]",140,Device Level,In Service,,0,https://lametro.vizix.io/console/#/analytics/report/execution/OPENEVENTS?StationID=1912&run=true,90007,CA,"{""messageId"":""1912_0"",""eventCode"":""140"",""eventType"":""SET""}",,false,false,
STATION,1914,Slauson Bus Facility-Silver,>LAM,,1914,,,2020-05-09T21:52:53.226-0400,2020-04-30T11:53:37.053-0400,-118.48972906207659;34.011882385457504;0.0,2092.4;2634.1;0.0,,,TVMEVENTSFTPRULE,2020-05-15T12:13:04.819-0400,2020-05-15T12:13:04.311-0400,1914,350 1/2 W SLAUSON AVE,"https://www.google.com/maps/place/350+1/2+W+SLAUSON+AVE,+LOS+ANGELES,+CA,+90003,+USA",LOS ANGELES,UNASSIGNED,,"[""1914_0:140:0""]",140,Device Level,In Service,,0,https://lametro.vizix.io/console/#/analytics/report/execution/OPENEVENTS?StationID=1914&run=true,90003,CA,"{""messageId"":""1914_0"",""eventCode"":""140"",""eventType"":""SET""}",,false,false,
STATION,1915,Manchester-Silver,>LAM,,1915,,,2020-05-09T21:52:53.217-0400,2020-04-30T11:53:36.980-0400,-118.48973308539016;34.011328771748964;0.0,2091.2;2431.9;0.0,,,TVMEVENTSFTPRULE,2020-05-15T12:13:04.969-0400,2020-05-15T12:13:04.336-0400,1915,452 1/2 W MANCHESTER AVE,"https://www.google.com/maps/place/452+1/2+W+MANCHESTER+AVE,+LOS+ANGELES,+CA,+90003,+USA",LOS ANGELES,UNASSIGNED,,"[""1915_0:140:0""]",140,Device Level,In Service,,0,https://lametro.vizix.io/console/#/analytics/report/execution/OPENEVENTS?StationID=1915&run=true,90003,CA,"{""messageId"":""1915_0"",""eventCode"":""140"",""eventType"":""SET""}",,false,false,
STATION,1916,Rosecrans-Silver,>LAM,,1916,,,2020-05-09T21:52:53.206-0400,2020-04-30T11:53:37.033-0400,-118.48972772097211;34.01003254562451;0.0,2092.8;1958.5;0.0,,,TVMEVENTSFTPRULE,2020-05-15T12:13:04.802-0400,2020-05-15T12:13:04.286-0400,1916,622 W ROSECRANS AVE,"https://www.google.com/maps/place/622+W+ROSECRANS+AVE,+LOS+ANGELES,+CA,+90248,+USA",LOS ANGELES,UNASSIGNED,,"[""1916_0:140:0""]",140,Device Level,In Service,,0,https://lametro.vizix.io/console/#/analytics/report/execution/OPENEVENTS?StationID=1916&run=true,90248,CA,"{""messageId"":""1916_0"",""eventCode"":""140"",""eventType"":""SET""}",,false,false,
STATION,1917,Harbor Gateway Transit Center,>LAM,,1917,,,2020-05-09T21:52:53.196-0400,2020-04-30T11:53:37.059-0400,-118.48976929521183;34.009765738428186;0.0,2080.2;1861.1;0.0,,,TVMEVENTSFTPRULE,2020-05-15T12:13:05.299-0400,2020-05-15T12:13:04.863-0400,1917,731 W. 182ND ST.,"https://www.google.com/maps/place/731+W.+182ND+ST.,+GARDENA,+CA,+90248,+USA",GARDENA,UNASSIGNED,,"[""1917_0:140:0""]",140,Device Level,In Service,,0,https://lametro.vizix.io/console/#/analytics/report/execution/OPENEVENTS?StationID=1917&run=true,90248,CA,"{""messageId"":""1917_0"",""eventCode"":""140"",""eventType"":""SET""}",,false,false,
STATION,223,Canoga Ave,>LAM,,223,,,2020-05-09T21:52:52.271-0400,2020-04-30T11:53:37.053-0400,-118.4950114003196;34.01589706243033;0.0,493.1;4100.4;0.0,,,TVMEVENTSFTPRULE,2020-05-15T12:13:04.786-0400,2020-05-15T12:13:04.237-0400,223,6550 CANOGA AVE,"https://www.google.com/maps/place/6550+CANOGA+AVE,+CANOGA+PARK,+CA,+91303,+USA",CANOGA PARK,UNASSIGNED,,"[""223_0:140:0""]",140,Device Level,In Service,,0,https://lametro.vizix.io/console/#/analytics/report/execution/OPENEVENTS?StationID=223&run=true,91303,CA,"{""messageId"":""223_0"",""eventCode"":""140"",""eventType"":""SET""}",,false,false,"{""Dispatch"":false,""DispatchStatus"":""UNASSIGNED"",""DispatchedAssociate"":""""}"
STATION,2709,Pico Blvd Mid-Wilshire,>LAM,,2709,,,2020-05-09T21:52:53.186-0400,2020-04-30T11:53:36.981-0400,-118.4913817048073;34.01320713083527;0.0,1592.0;3117.9;0.0,,,TVMEVENTSFTPRULE,2020-05-15T12:13:05.171-0400,2020-05-15T12:13:04.393-0400,2709,4646 W PICO BLVD,"https://www.google.com/maps/place/4646+W+PICO+BLVD,+LOS+ANGELES,+CA,+90019,+USA",LOS ANGELES,UNASSIGNED,,"[""2709_0:140:0""]",140,Device Level,In Service,,0,https://lametro.vizix.io/console/#/analytics/report/execution/OPENEVENTS?StationID=2709&run=true,90019,CA,"{""messageId"":""2709_0"",""eventCode"":""140"",""eventType"":""SET""}",,false,false,
STATION,310,Arcadia Station,>LAM,,310,,,2020-05-09T21:52:52.907-0400,2020-04-30T11:53:37.026-0400,-118.48641385173423;34.01659907227907;0.0,3096.1;4356.8;0.0,,,TVMEVENTSFTPRULE,2020-06-05T11:32:24.790-0400,2020-06-05T11:32:24.106-0400,310,201 N FIRST AVENUE,"https://www.google.com/maps/place/201+N+FIRST+AVENUE,+ARCADIA,+CA,+91006,+USA",ARCADIA,UNASSIGNED,,"[""310_0:140:0""]",140,Device Level,In Service,,0,https://lametro.vizix.io/console/#/analytics/report/execution/OPENEVENTS?StationID=310&run=true,91006,CA,"{""messageId"":""310_1"",""eventCode"":""407"",""eventType"":""CLEAR""}",,false,false,"{""Dispatch"":true,""DispatchStatus"":""ASSIGNED"",""DispatchedAssociate"":""Chris Evans""}"
STATION,471,Duarte/City of Hope,>LAM,,471,,,2020-05-09T21:52:52.919-0400,2020-04-30T11:53:37.052-0400,-118.48574329948049;34.016590179401746;0.0,3299.1;4353.5;0.0,,,TVMEVENTSFTPRULE,2020-05-15T12:13:04.925-0400,2020-05-15T12:13:04.387-0400,471,1777 E DUARTE ROAD,"https://www.google.com/maps/place/1777+E+DUARTE+ROAD,+DUARTE,+CA,+91010,+USA",DUARTE,UNASSIGNED,,"[""471_0:140:0""]",140,Device Level,In Service,,0,https://lametro.vizix.io/console/#/analytics/report/execution/OPENEVENTS?StationID=471&run=true,91010,CA,"{""messageId"":""471_0"",""eventCode"":""140"",""eventType"":""SET""}",,false,false,
STATION,474,Irwindale,>LAM,,474,,,2020-05-09T21:52:52.895-0400,2020-04-30T11:53:37.051-0400,-118.4854013178311;34.01658350975557;0.0,3402.7;4351.1;0.0,,,TVMEVENTSFTPRULE,2020-05-15T12:13:05.155-0400,2020-05-15T12:13:04.565-0400,474,16017 AVENIDA PADILLA,"https://www.google.com/maps/place/16017+AVENIDA+PADILLA,+IRWINDALE,+CA,+91702,+USA",IRWINDALE,UNASSIGNED,,"[""474_0:140:0""]",140,Device Level,In Service,,0,https://lametro.vizix.io/console/#/analytics/report/execution/OPENEVENTS?StationID=474&run=true,91702,CA,"{""messageId"":""474_0"",""eventCode"":""140"",""eventType"":""SET""}",,false,false,
STATION,489,Monrovia,>LAM,,489,,,2020-05-09T21:52:52.885-0400,2020-04-30T11:53:37.056-0400,-118.48608125781638;34.01658906779916;0.0,3196.8;4353.1;0.0,,,TVMEVENTSFTPRULE,2020-05-15T12:13:05.141-0400,2020-05-15T12:13:04.454-0400,489,1651 S PRIMROSE AVENUE,"https://www.google.com/maps/place/1651+S+PRIMROSE+AVENUE,+MONROVIA,+CA,+91016,+USA",MONROVIA,UNASSIGNED,,"[""489_0:140:0""]",140,Device Level,In Service,,0,https://lametro.vizix.io/console/#/analytics/report/execution/OPENEVENTS?StationID=489&run=true,91016,CA,"{""messageId"":""489_0"",""eventCode"":""140"",""eventType"":""SET""}",,false,false,
STATION,575,Azusa Downtown,>LAM,,575,,,2020-05-09T21:52:52.873-0400,2020-04-30T11:53:36.946-0400,-118.48507006501777;34.01658462136992;0.0,3503.0;4351.5;0.0,,,TVMEVENTSFTPRULE,2020-05-15T12:13:05.058-0400,2020-05-15T12:13:04.744-0400,575,780 N ALAMEDA,"https://www.google.com/maps/place/780+N+ALAMEDA,+AZUSA,+CA,+91702,+USA",AZUSA,UNASSIGNED,,"[""575_0:140:0""]",140,Device Level,In Service,,0,https://lametro.vizix.io/console/#/analytics/report/execution/OPENEVENTS?StationID=575&run=true,91702,CA,"{""messageId"":""575_0"",""eventCode"":""140"",""eventType"":""SET""}",,false,false,
